{"type":"FeatureCollection","features":[{"type":"Feature","id":"5d041b8b8ccfcf4127cd7d7924624e120409d79adfde16704f25ae55126ed5da-1","properties":{"facility_id":"5d041b8b8ccfcf4127cd7d7924624e120409d79adfde16704f25ae55126ed5da","point_ordinal":1,"zone_group_id":"361101011606","source_manage_no":"361101020478","facility_name":"가득유치원","sgg_code":"36110","facility_type_code":"1","api_first_registered_on":"2017-07-14","api_last_modified_on":null,"updated_at":"2026-07-31T00:20:57.057893+00:00"},"geometry":{"type":"Point","coordinates":[127.243613595,36.486872258]}},{"type":"Feature","id":"a9d8208a1b03f7de81537574f88bd3d4c45700d2d2c7bf7bc476be9d609b438c-1","properties":{"facility_id":"a9d8208a1b03f7de81537574f88bd3d4c45700d2d2c7bf7bc476be9d609b438c","point_ordinal":1,"zone_group_id":"361101011606","source_manage_no":"361101011606","facility_name":"가득초등학교","sgg_code":"36110","facility_type_code":"1","api_first_registered_on":"2017-07-14","api_last_modified_on":null,"updated_at":"2026-07-31T00:20:57.057893+00:00"},"geometry":{"type":"Point","coordinates":[127.243289182,36.487513142]}},{"type":"Feature","id":"3d97108de775b9ba3b9ec36af2c6ca9e275c79039020485b9e3930ffb9550ac2-1","properties":{"facility_id":"3d97108de775b9ba3b9ec36af2c6ca9e275c79039020485b9e3930ffb9550ac2","point_ordinal":1,"zone_group_id":"361101011575","source_manage_no":"361101011574","facility_name":"가락유치원","sgg_code":"36110","facility_type_code":"1","api_first_registered_on":"2015-04-15","api_last_modified_on":null,"updated_at":"2026-07-31T00:20:57.057893+00:00"},"geometry":{"type":"Point","coordinates":[127.230903187,36.515149637]}},{"type":"Feature","id":"2e396a8cf507162b8b4e70d7a485921e80c995d7092a87f86345f2beb8dc8d46-1","properties":{"facility_id":"2e396a8cf507162b8b4e70d7a485921e80c995d7092a87f86345f2beb8dc8d46","point_ordinal":1,"zone_group_id":"361101011575","source_manage_no":"361101011575","facility_name":"가락초등학교","sgg_code":"36110","facility_type_code":"1","api_first_registered_on":"2015-04-15","api_last_modified_on":null,"updated_at":"2026-07-31T00:20:57.057893+00:00"},"geometry":{"type":"Point","coordinates":[127.230849402,36.515834618]}},{"type":"Feature","id":"e97b18efc6d7541dfb9f3e71f7197bf59c7aa3beae2469fdd73bb16595f305ff-1","properties":{"facility_id":"e97b18efc6d7541dfb9f3e71f7197bf59c7aa3beae2469fdd73bb16595f305ff","point_ordinal":1,"zone_group_id":"361101011591","source_manage_no":"361101011591","facility_name":"가온유치원","sgg_code":"36110","facility_type_code":"1","api_first_registered_on":"2015-03-02","api_last_modified_on":null,"updated_at":"2026-07-31T00:20:57.057893+00:00"},"geometry":{"type":"Point","coordinates":[127.262322674,36.514684107]}},{"type":"Feature","id":"c23308d073630e4e520979e358dc55f2fe659af4c83889f7c2ffb4f83a9c4a89-1","properties":{"facility_id":"c23308d073630e4e520979e358dc55f2fe659af4c83889f7c2ffb4f83a9c4a89","point_ordinal":1,"zone_group_id":"361101011585","source_manage_no":"361101011585","facility_name":"감성초등학교","sgg_code":"36110","facility_type_code":"1","api_first_registered_on":"2006-04-30","api_last_modified_on":null,"updated_at":"2026-07-31T00:20:57.057893+00:00"},"geometry":{"type":"Point","coordinates":[127.289263314,36.443553107]}},{"type":"Feature","id":"f813e1cd0230fcceeb45f1da645c66c08546f718fdbd116e6c6b1b576b733c2a-1","properties":{"facility_id":"f813e1cd0230fcceeb45f1da645c66c08546f718fdbd116e6c6b1b576b733c2a","point_ordinal":1,"zone_group_id":"361101011585","source_manage_no":"361101011586","facility_name":"감성초등학교 병설유치원","sgg_code":"36110","facility_type_code":"1","api_first_registered_on":"2006-04-30","api_last_modified_on":null,"updated_at":"2026-07-31T00:20:57.057893+00:00"},"geometry":{"type":"Point","coordinates":[127.289265726,36.443451721]}},{"type":"Feature","id":"0f179fc48e337d31bab5617cd4bc3ab1669f1f93678d2bb9cafaed1a102bb5ed-1","properties":{"facility_id":"0f179fc48e337d31bab5617cd4bc3ab1669f1f93678d2bb9cafaed1a102bb5ed","point_ordinal":1,"zone_group_id":"361101011576","source_manage_no":"361101020504","facility_name":"고운유치원","sgg_code":"36110","facility_type_code":"1","api_first_registered_on":"2015-03-02","api_last_modified_on":null,"updated_at":"2026-07-31T00:20:57.057893+00:00"},"geometry":{"type":"Point","coordinates":[127.237138401,36.504349712]}},{"type":"Feature","id":"4f94e5e388919597d18b0198d796b1a42076ba93d9f3302aafb84dde89f98d22-1","properties":{"facility_id":"4f94e5e388919597d18b0198d796b1a42076ba93d9f3302aafb84dde89f98d22","point_ordinal":1,"zone_group_id":"361101011576","source_manage_no":"361101011576","facility_name":"고운초등학교","sgg_code":"36110","facility_type_code":"1","api_first_registered_on":"2015-03-02","api_last_modified_on":null,"updated_at":"2026-07-31T00:20:57.057893+00:00"},"geometry":{"type":"Point","coordinates":[127.236555196,36.50414043]}},{"type":"Feature","id":"804b2c432854c66d269b9785f5285d3caaa1d5ffcd21638eb0d313fc9ec28c16-1","properties":{"facility_id":"804b2c432854c66d269b9785f5285d3caaa1d5ffcd21638eb0d313fc9ec28c16","point_ordinal":1,"zone_group_id":"361101011644","source_manage_no":"361101011644","facility_name":"교동초등학교","sgg_code":"36110","facility_type_code":"1","api_first_registered_on":"1994-08-20","api_last_modified_on":"2025-11-28","updated_at":"2026-07-31T00:20:57.057893+00:00"},"geometry":{"type":"Point","coordinates":[127.298585912,36.605608134]}},{"type":"Feature","id":"053f709b8980aec7879d03c30ebdd2c1ff00b40f099ea1d96bbb60e4bdd13bef-1","properties":{"facility_id":"053f709b8980aec7879d03c30ebdd2c1ff00b40f099ea1d96bbb60e4bdd13bef","point_ordinal":1,"zone_group_id":"361101011644","source_manage_no":"361101011645","facility_name":"교동초등학교병설유치원","sgg_code":"36110","facility_type_code":"1","api_first_registered_on":"1994-08-20","api_last_modified_on":null,"updated_at":"2026-07-31T00:20:57.057893+00:00"},"geometry":{"type":"Point","coordinates":[127.298579933,36.605506771]}},{"type":"Feature","id":"7e3d770e45b4175a931bb42ee771f084cfc746fdc18e5c57e580edd9635a1da6-1","properties":{"facility_id":"7e3d770e45b4175a931bb42ee771f084cfc746fdc18e5c57e580edd9635a1da6","point_ordinal":1,"zone_group_id":"361101011646","source_manage_no":"361101011646","facility_name":"근로복지공단 어린이집","sgg_code":"36110","facility_type_code":"1","api_first_registered_on":"2007-04-20","api_last_modified_on":null,"updated_at":"2026-07-31T00:20:57.057893+00:00"},"geometry":{"type":"Point","coordinates":[127.3010598,36.597232931]}},{"type":"Feature","id":"f1e34112216444acb8d381d7a84d0a09d67027f1eefac9e8abbdbe2d525ad5f2-1","properties":{"facility_id":"f1e34112216444acb8d381d7a84d0a09d67027f1eefac9e8abbdbe2d525ad5f2","point_ordinal":1,"zone_group_id":"361101011609","source_manage_no":"361101020477","facility_name":"글벗유치원","sgg_code":"36110","facility_type_code":"1","api_first_registered_on":"2017-07-14","api_last_modified_on":null,"updated_at":"2026-07-31T00:20:57.057893+00:00"},"geometry":{"type":"Point","coordinates":[127.298041607,36.48697082]}},{"type":"Feature","id":"274edb038c44aae89228c743b8d7d8637d8aee02c59c56fd2fdc1c425e158dd0-1","properties":{"facility_id":"274edb038c44aae89228c743b8d7d8637d8aee02c59c56fd2fdc1c425e158dd0","point_ordinal":1,"zone_group_id":"361101011609","source_manage_no":"361101011609","facility_name":"글벗초등학교","sgg_code":"36110","facility_type_code":"1","api_first_registered_on":"2017-07-14","api_last_modified_on":null,"updated_at":"2026-07-31T00:20:57.057893+00:00"},"geometry":{"type":"Point","coordinates":[127.298205618,36.487376331]}},{"type":"Feature","id":"41790e0f7bfc13a41ff9b59e531e419058198d054f6b581927f2fba185502fde-1","properties":{"facility_id":"41790e0f7bfc13a41ff9b59e531e419058198d054f6b581927f2fba185502fde","point_ordinal":1,"zone_group_id":"361101011587","source_manage_no":"361101011587","facility_name":"금남초등학교","sgg_code":"36110","facility_type_code":"1","api_first_registered_on":"1997-04-01","api_last_modified_on":null,"updated_at":"2026-07-31T00:20:57.057893+00:00"},"geometry":{"type":"Point","coordinates":[127.288001474,36.472412067]}},{"type":"Feature","id":"aba54957d147ea6f8fb9ca65b783667acbc1757e4624a7c061bb8d84f9c3404c-1","properties":{"facility_id":"aba54957d147ea6f8fb9ca65b783667acbc1757e4624a7c061bb8d84f9c3404c","point_ordinal":1,"zone_group_id":"361101011587","source_manage_no":"361101011588","facility_name":"금남초등학교 병설유치원","sgg_code":"36110","facility_type_code":"1","api_first_registered_on":"1997-04-01","api_last_modified_on":null,"updated_at":"2026-07-31T00:20:57.057893+00:00"},"geometry":{"type":"Point","coordinates":[127.288022606,36.472092104]}},{"type":"Feature","id":"3a2e84e12c7e3ef96548651908a2db1297f64806742600033d824c03e3cfbacc-1","properties":{"facility_id":"3a2e84e12c7e3ef96548651908a2db1297f64806742600033d824c03e3cfbacc","point_ordinal":1,"zone_group_id":"361101020500","source_manage_no":"361101020500","facility_name":"꿈샘어린이집","sgg_code":"36110","facility_type_code":"1","api_first_registered_on":"2020-09-16","api_last_modified_on":null,"updated_at":"2026-07-31T00:20:57.057893+00:00"},"geometry":{"type":"Point","coordinates":[127.25749158,36.503762085]}},{"type":"Feature","id":"0b20f1885f2b0de98cf59092af829b3eda3c9d470e272bf9cf03934e6943efb1-1","properties":{"facility_id":"0b20f1885f2b0de98cf59092af829b3eda3c9d470e272bf9cf03934e6943efb1","point_ordinal":1,"zone_group_id":"361101011615","source_manage_no":"361101011614","facility_name":"나래유치원","sgg_code":"36110","facility_type_code":"1","api_first_registered_on":"2014-09-01","api_last_modified_on":null,"updated_at":"2026-07-31T00:20:57.057893+00:00"},"geometry":{"type":"Point","coordinates":[127.245479113,36.508849712]}},{"type":"Feature","id":"4879fe7756fa9ce39100a5960aeb39d887b4613c1a709f30d34367495494fecb-1","properties":{"facility_id":"4879fe7756fa9ce39100a5960aeb39d887b4613c1a709f30d34367495494fecb","point_ordinal":1,"zone_group_id":"361101011615","source_manage_no":"361101011615","facility_name":"나래초등학교","sgg_code":"36110","facility_type_code":"1","api_first_registered_on":"2014-09-01","api_last_modified_on":null,"updated_at":"2026-07-31T00:20:57.057893+00:00"},"geometry":{"type":"Point","coordinates":[127.246194415,36.50912309]}},{"type":"Feature","id":"af0db83692f1f79aab6acb07ff1b9b82ba46a05644691b87d15d89babf1dd6d8-1","properties":{"facility_id":"af0db83692f1f79aab6acb07ff1b9b82ba46a05644691b87d15d89babf1dd6d8","point_ordinal":1,"zone_group_id":"361101027043","source_manage_no":"361101027043","facility_name":"나루초등학교","sgg_code":"36110","facility_type_code":"1","api_first_registered_on":"2023-02-28","api_last_modified_on":null,"updated_at":"2026-07-31T00:20:57.057893+00:00"},"geometry":{"type":"Point","coordinates":[127.323553623,36.49522615]}},{"type":"Feature","id":"6dc6b28f70534c39dd3fec60d76ce9b1e176e1f21f5b10992c6fc055604fb1cd-1","properties":{"facility_id":"6dc6b28f70534c39dd3fec60d76ce9b1e176e1f21f5b10992c6fc055604fb1cd","point_ordinal":1,"zone_group_id":"361101027043","source_manage_no":"361101027044","facility_name":"나루초등학교병설유치원","sgg_code":"36110","facility_type_code":"1","api_first_registered_on":null,"api_last_modified_on":null,"updated_at":"2026-07-31T00:20:57.057893+00:00"},"geometry":{"type":"Point","coordinates":[127.3237216,36.495360868]}},{"type":"Feature","id":"101d632b180698a227edd7800cc419d301c1d5542a5ec62431d85ecb6edf71c6-1","properties":{"facility_id":"101d632b180698a227edd7800cc419d301c1d5542a5ec62431d85ecb6edf71c6","point_ordinal":1,"zone_group_id":"361101026062","source_manage_no":"361101028170","facility_name":"나성유치원","sgg_code":"36110","facility_type_code":"1","api_first_registered_on":null,"api_last_modified_on":null,"updated_at":"2026-07-31T00:20:57.057893+00:00"},"geometry":{"type":"Point","coordinates":[127.265035792,36.489626361]}},{"type":"Feature","id":"39ad49debc13840a355bb19f0d87f5cb8c29348b53751fe0665ea5d15c8f700a-1","properties":{"facility_id":"39ad49debc13840a355bb19f0d87f5cb8c29348b53751fe0665ea5d15c8f700a","point_ordinal":1,"zone_group_id":"361101026062","source_manage_no":"361101026062","facility_name":"나성초등학교","sgg_code":"36110","facility_type_code":"1","api_first_registered_on":null,"api_last_modified_on":null,"updated_at":"2026-07-31T00:20:57.057893+00:00"},"geometry":{"type":"Point","coordinates":[127.264194378,36.489976299]}},{"type":"Feature","id":"6c8d6303656a2dade095649e011e9ae2399677c0a0fbd47717897a5dc3ec0a5b-1","properties":{"facility_id":"6c8d6303656a2dade095649e011e9ae2399677c0a0fbd47717897a5dc3ec0a5b","point_ordinal":1,"zone_group_id":"361101011593","source_manage_no":"361101011592","facility_name":"늘봄유치원","sgg_code":"36110","facility_type_code":"1","api_first_registered_on":"2015-03-02","api_last_modified_on":null,"updated_at":"2026-07-31T00:20:57.057893+00:00"},"geometry":{"type":"Point","coordinates":[127.254782948,36.513397342]}},{"type":"Feature","id":"26ff67a5c1f9cb98f340227ec4a8a882f5d663ecb600d192d10c66806b05c82d-1","properties":{"facility_id":"26ff67a5c1f9cb98f340227ec4a8a882f5d663ecb600d192d10c66806b05c82d","point_ordinal":1,"zone_group_id":"361101011593","source_manage_no":"361101011593","facility_name":"늘봄초등학교","sgg_code":"36110","facility_type_code":"1","api_first_registered_on":"2015-03-02","api_last_modified_on":null,"updated_at":"2026-07-31T00:20:57.057893+00:00"},"geometry":{"type":"Point","coordinates":[127.254878173,36.514350108]}},{"type":"Feature","id":"dbfc72fa8a9fee9e2b4e58b935541037a69bb4be2d55a106d1650bb910102b65-1","properties":{"facility_id":"dbfc72fa8a9fee9e2b4e58b935541037a69bb4be2d55a106d1650bb910102b65","point_ordinal":1,"zone_group_id":"361101011660","source_manage_no":"361101011659","facility_name":"다빛유치원","sgg_code":"36110","facility_type_code":"1","api_first_registered_on":"2015-03-02","api_last_modified_on":null,"updated_at":"2026-07-31T00:20:57.057893+00:00"},"geometry":{"type":"Point","coordinates":[127.244547697,36.500137382]}},{"type":"Feature","id":"5b77194891813c9ee51c7a449a4c49cc230d95558354213a68c5c6e616e314c8-1","properties":{"facility_id":"5b77194891813c9ee51c7a449a4c49cc230d95558354213a68c5c6e616e314c8","point_ordinal":1,"zone_group_id":"361101011660","source_manage_no":"361101011660","facility_name":"다빛초등학교","sgg_code":"36110","facility_type_code":"1","api_first_registered_on":"2015-03-02","api_last_modified_on":null,"updated_at":"2026-07-31T00:20:57.057893+00:00"},"geometry":{"type":"Point","coordinates":[127.244133053,36.500498694]}},{"type":"Feature","id":"38c30578938fb5446ec71efc976f51ffd0889a86598a92b48424f8614bf482f6-1","properties":{"facility_id":"38c30578938fb5446ec71efc976f51ffd0889a86598a92b48424f8614bf482f6","point_ordinal":1,"zone_group_id":"361101020487","source_manage_no":"361101028167","facility_name":"다정유치원","sgg_code":"36110","facility_type_code":"1","api_first_registered_on":"2018-09-04","api_last_modified_on":null,"updated_at":"2026-07-31T00:20:57.057893+00:00"},"geometry":{"type":"Point","coordinates":[127.243914332,36.493520453]}},{"type":"Feature","id":"2dfb445c205b120247de5bf60550a842d7e15c5cbfe16277a15a325af9b10b2d-1","properties":{"facility_id":"2dfb445c205b120247de5bf60550a842d7e15c5cbfe16277a15a325af9b10b2d","point_ordinal":1,"zone_group_id":"361101020487","source_manage_no":"361101020487","facility_name":"다정초등학교","sgg_code":"36110","facility_type_code":"1","api_first_registered_on":"2018-09-04","api_last_modified_on":null,"updated_at":"2026-07-31T00:20:57.057893+00:00"},"geometry":{"type":"Point","coordinates":[127.24442005,36.493892686]}},{"type":"Feature","id":"3a12a701220a4ec505c6ddf1c41f6baf6eea92397d44984a02f9b89176c4aa99-1","properties":{"facility_id":"3a12a701220a4ec505c6ddf1c41f6baf6eea92397d44984a02f9b89176c4aa99","point_ordinal":1,"zone_group_id":"361101011647","source_manage_no":"361101011647","facility_name":"대동초등학교","sgg_code":"36110","facility_type_code":"1","api_first_registered_on":"1994-08-20","api_last_modified_on":null,"updated_at":"2026-07-31T00:20:57.057893+00:00"},"geometry":{"type":"Point","coordinates":[127.293720264,36.596505993]}},{"type":"Feature","id":"fe89e332f1ce42e043b349593d893d5333430791ce659222f306d15eb82d61fc-1","properties":{"facility_id":"fe89e332f1ce42e043b349593d893d5333430791ce659222f306d15eb82d61fc","point_ordinal":1,"zone_group_id":"361101011647","source_manage_no":"361101011648","facility_name":"대동초등학교병설유치원","sgg_code":"36110","facility_type_code":"1","api_first_registered_on":"1994-08-20","api_last_modified_on":null,"updated_at":"2026-07-31T00:20:57.057893+00:00"},"geometry":{"type":"Point","coordinates":[127.29367944,36.596792205]}},{"type":"Feature","id":"a736d012219f4e28822d31fc5ca3213b66415360989fdf61c77e4d20339abee1-1","properties":{"facility_id":"a736d012219f4e28822d31fc5ca3213b66415360989fdf61c77e4d20339abee1","point_ordinal":1,"zone_group_id":"361102030145","source_manage_no":"361102030145","facility_name":"대평시장","sgg_code":"36110","facility_type_code":"2","api_first_registered_on":null,"api_last_modified_on":"2026-07-14","updated_at":"2026-07-31T00:20:57.057893+00:00"},"geometry":{"type":"Point","coordinates":[127.281920082,36.466391232]}},{"type":"Feature","id":"24a5dd00a850ba1f6b850be644af7e78d8e3ed876678c5007afe21a5a9be15f3-1","properties":{"facility_id":"24a5dd00a850ba1f6b850be644af7e78d8e3ed876678c5007afe21a5a9be15f3","point_ordinal":1,"zone_group_id":"361101020490","source_manage_no":"361101029771","facility_name":"대평유치원","sgg_code":"36110","facility_type_code":"1","api_first_registered_on":null,"api_last_modified_on":"2025-12-03","updated_at":"2026-07-31T00:20:57.057893+00:00"},"geometry":{"type":"Point","coordinates":[127.279227453,36.469997696]}},{"type":"Feature","id":"7c5eaa1389b686e3ad5902b596442a3abd8a1b87533aa42f7306dc65b15a29d7-1","properties":{"facility_id":"7c5eaa1389b686e3ad5902b596442a3abd8a1b87533aa42f7306dc65b15a29d7","point_ordinal":1,"zone_group_id":"361101020490","source_manage_no":"361101020490","facility_name":"대평초등학교","sgg_code":"36110","facility_type_code":"1","api_first_registered_on":"2018-09-04","api_last_modified_on":null,"updated_at":"2026-07-31T00:20:57.057893+00:00"},"geometry":{"type":"Point","coordinates":[127.278557957,36.469897309]}},{"type":"Feature","id":"f58bcb8fb6ed6e73c5217e7d6a5d52b3fc1e87f790ffbf9ce01ed92fb9af4ddf-1","properties":{"facility_id":"f58bcb8fb6ed6e73c5217e7d6a5d52b3fc1e87f790ffbf9ce01ed92fb9af4ddf","point_ordinal":1,"zone_group_id":"361102030144","source_manage_no":"361102030144","facility_name":"도계리 경로당","sgg_code":"36110","facility_type_code":"2","api_first_registered_on":null,"api_last_modified_on":"2026-07-14","updated_at":"2026-07-31T00:20:57.057893+00:00"},"geometry":{"type":"Point","coordinates":[127.207322966,36.49693146]}},{"type":"Feature","id":"8b6aea4ed1575dc3c9f463efacadef90c97daee34772845a630dec620cd9ac2c-1","properties":{"facility_id":"8b6aea4ed1575dc3c9f463efacadef90c97daee34772845a630dec620cd9ac2c","point_ordinal":1,"zone_group_id":"361101011595","source_manage_no":"361101011594","facility_name":"도담유치원","sgg_code":"36110","facility_type_code":"1","api_first_registered_on":"2013-03-01","api_last_modified_on":null,"updated_at":"2026-07-31T00:20:57.057893+00:00"},"geometry":{"type":"Point","coordinates":[127.262468917,36.511113657]}},{"type":"Feature","id":"53263e616f1322d3b06e6971e64eef135b6fd3f2c1794cecb318807114f6eb0b-1","properties":{"facility_id":"53263e616f1322d3b06e6971e64eef135b6fd3f2c1794cecb318807114f6eb0b","point_ordinal":1,"zone_group_id":"361101011595","source_manage_no":"361101011595","facility_name":"도담초등학교","sgg_code":"36110","facility_type_code":"1","api_first_registered_on":"2013-03-01","api_last_modified_on":null,"updated_at":"2026-07-31T00:20:57.057893+00:00"},"geometry":{"type":"Point","coordinates":[127.262727061,36.511630937]}},{"type":"Feature","id":"b7256ef33a7b5f7522b73118460f388103be34b28890986a98064b3a667b0ab9-1","properties":{"facility_id":"b7256ef33a7b5f7522b73118460f388103be34b28890986a98064b3a667b0ab9","point_ordinal":1,"zone_group_id":"361101011661","source_manage_no":"361101011661","facility_name":"도란유치원","sgg_code":"36110","facility_type_code":"1","api_first_registered_on":"2015-03-02","api_last_modified_on":null,"updated_at":"2026-07-31T00:20:57.057893+00:00"},"geometry":{"type":"Point","coordinates":[127.246866398,36.505372725]}},{"type":"Feature","id":"a9a07530a625e66b3177e45a6fdc77c4ceafbc878ec7beddacf2921cdb2b8c86-1","properties":{"facility_id":"a9a07530a625e66b3177e45a6fdc77c4ceafbc878ec7beddacf2921cdb2b8c86","point_ordinal":1,"zone_group_id":"361101011649","source_manage_no":"361101011650","facility_name":"도원초등학교병설유치원","sgg_code":"36110","facility_type_code":"1","api_first_registered_on":"2010-03-08","api_last_modified_on":null,"updated_at":"2026-07-31T00:20:57.057893+00:00"},"geometry":{"type":"Point","coordinates":[127.287296844,36.585653561]}},{"type":"Feature","id":"1291905df0b7f7229bf6e5e2ca7d551cbfb25b9658e54818f666b58515a88a52-1","properties":{"facility_id":"1291905df0b7f7229bf6e5e2ca7d551cbfb25b9658e54818f666b58515a88a52","point_ordinal":1,"zone_group_id":"361101011578","source_manage_no":"361101011577","facility_name":"두루유치원","sgg_code":"36110","facility_type_code":"1","api_first_registered_on":"2015-04-15","api_last_modified_on":null,"updated_at":"2026-07-31T00:20:57.057893+00:00"},"geometry":{"type":"Point","coordinates":[127.238795334,36.519176749]}},{"type":"Feature","id":"64c87f8ec15b94191450716b35b24df99d3138aee730f7d63c172fd43b4e282e-1","properties":{"facility_id":"64c87f8ec15b94191450716b35b24df99d3138aee730f7d63c172fd43b4e282e","point_ordinal":1,"zone_group_id":"361101011578","source_manage_no":"361101011578","facility_name":"두루초등학교","sgg_code":"36110","facility_type_code":"1","api_first_registered_on":"2015-04-15","api_last_modified_on":null,"updated_at":"2026-07-31T00:20:57.057893+00:00"},"geometry":{"type":"Point","coordinates":[127.238579045,36.519639023]}},{"type":"Feature","id":"9df92cfa33d7f82882390148891f1173da2ac3bd58b63ea6462162958e47609c-1","properties":{"facility_id":"9df92cfa33d7f82882390148891f1173da2ac3bd58b63ea6462162958e47609c","point_ordinal":1,"zone_group_id":"361101027415","source_manage_no":"361101027415","facility_name":"라온어린이집","sgg_code":"36110","facility_type_code":"1","api_first_registered_on":"2024-08-12","api_last_modified_on":null,"updated_at":"2026-07-31T00:20:57.057893+00:00"},"geometry":{"type":"Point","coordinates":[127.263441613,36.497773293]}},{"type":"Feature","id":"ffaa3f9fadfd5570b9bb7df7dde7ee6444e6000ba7915a6730c170f3220afd76-1","properties":{"facility_id":"ffaa3f9fadfd5570b9bb7df7dde7ee6444e6000ba7915a6730c170f3220afd76","point_ordinal":1,"zone_group_id":"361101011651","source_manage_no":"361101011651","facility_name":"명동초등학교","sgg_code":"36110","facility_type_code":"1","api_first_registered_on":"1996-04-18","api_last_modified_on":null,"updated_at":"2026-07-31T00:20:57.057893+00:00"},"geometry":{"type":"Point","coordinates":[127.304794896,36.601144541]}},{"type":"Feature","id":"0ddf8c2c31f21ff88db57f1c5675e94c837f5cc6401271f3c42fd784d1ede7c7-1","properties":{"facility_id":"0ddf8c2c31f21ff88db57f1c5675e94c837f5cc6401271f3c42fd784d1ede7c7","point_ordinal":1,"zone_group_id":"361101011651","source_manage_no":"361101011652","facility_name":"명동초등학교병설유치원","sgg_code":"36110","facility_type_code":"1","api_first_registered_on":"1996-04-18","api_last_modified_on":null,"updated_at":"2026-07-31T00:20:57.057893+00:00"},"geometry":{"type":"Point","coordinates":[127.304794338,36.601002613]}},{"type":"Feature","id":"44a1d8c4502dcf832bb9776bce3e69cf132cf0a4b5a8fdc57ecd6893fdf17d3c-1","properties":{"facility_id":"44a1d8c4502dcf832bb9776bce3e69cf132cf0a4b5a8fdc57ecd6893fdf17d3c","point_ordinal":1,"zone_group_id":"361102030143","source_manage_no":"361102030143","facility_name":"미곡1리노인회관","sgg_code":"36110","facility_type_code":"2","api_first_registered_on":null,"api_last_modified_on":"2026-07-14","updated_at":"2026-07-31T00:20:57.057893+00:00"},"geometry":{"type":"Point","coordinates":[127.217065206,36.669226824]}},{"type":"Feature","id":"b4063159e1fe800bdb28defbc31c07cac840457554c6097bf635321f25b6f29e-1","properties":{"facility_id":"b4063159e1fe800bdb28defbc31c07cac840457554c6097bf635321f25b6f29e","point_ordinal":1,"zone_group_id":"361101011667","source_manage_no":"361101011666","facility_name":"미르유치원","sgg_code":"36110","facility_type_code":"1","api_first_registered_on":"2014-03-02","api_last_modified_on":null,"updated_at":"2026-07-31T00:20:57.057893+00:00"},"geometry":{"type":"Point","coordinates":[127.254481829,36.473190027]}},{"type":"Feature","id":"1ec047e1580f2ae109696a8863be9762341b74aa69d22ec080601c502b9520f2-1","properties":{"facility_id":"1ec047e1580f2ae109696a8863be9762341b74aa69d22ec080601c502b9520f2","point_ordinal":1,"zone_group_id":"361101011667","source_manage_no":"361101011667","facility_name":"미르초등학교","sgg_code":"36110","facility_type_code":"1","api_first_registered_on":"2014-03-02","api_last_modified_on":null,"updated_at":"2026-07-31T00:20:57.057893+00:00"},"geometry":{"type":"Point","coordinates":[127.253943929,36.472479257]}},{"type":"Feature","id":"d135061368467e6c744ff8dfc36ce590e196831b2e5f64efad2d1b89abe84abe-1","properties":{"facility_id":"d135061368467e6c744ff8dfc36ce590e196831b2e5f64efad2d1b89abe84abe","point_ordinal":1,"zone_group_id":"361102011596","source_manage_no":"361102011596","facility_name":"밀마루복지마을","sgg_code":"36110","facility_type_code":"2","api_first_registered_on":"2016-12-12","api_last_modified_on":null,"updated_at":"2026-07-31T00:20:57.057893+00:00"},"geometry":{"type":"Point","coordinates":[127.259102688,36.509519651]}},{"type":"Feature","id":"cff91e4a897d9b53685c8e4f21ab49f060943baed325751a5c69f5408d034b69-1","properties":{"facility_id":"cff91e4a897d9b53685c8e4f21ab49f060943baed325751a5c69f5408d034b69","point_ordinal":1,"zone_group_id":"361101029748","source_manage_no":"361101029749","facility_name":"바른유치원","sgg_code":"36110","facility_type_code":"1","api_first_registered_on":null,"api_last_modified_on":"2025-11-26","updated_at":"2026-07-31T00:20:57.057893+00:00"},"geometry":{"type":"Point","coordinates":[127.258095902,36.529754124]}},{"type":"Feature","id":"bd5e0340204014ba3b0175a6431f3c3cf9f925ee53d1625a18c2b1fcd6c14434-1","properties":{"facility_id":"bd5e0340204014ba3b0175a6431f3c3cf9f925ee53d1625a18c2b1fcd6c14434","point_ordinal":1,"zone_group_id":"361101029748","source_manage_no":"361101029748","facility_name":"바른초등학교","sgg_code":"36110","facility_type_code":"1","api_first_registered_on":null,"api_last_modified_on":"2025-11-26","updated_at":"2026-07-31T00:20:57.057893+00:00"},"geometry":{"type":"Point","coordinates":[127.257112289,36.52945211]}},{"type":"Feature","id":"002e0b6cb6dea579719ef67e9d1ecc8b1f1716116a39423c94fa33ad265058e6-1","properties":{"facility_id":"002e0b6cb6dea579719ef67e9d1ecc8b1f1716116a39423c94fa33ad265058e6","point_ordinal":1,"zone_group_id":"361101020497","source_manage_no":"361101020498","facility_name":"반곡유치원","sgg_code":"36110","facility_type_code":"1","api_first_registered_on":"2019-06-10","api_last_modified_on":null,"updated_at":"2026-07-31T00:20:57.057893+00:00"},"geometry":{"type":"Point","coordinates":[127.310057892,36.500768266]}},{"type":"Feature","id":"df9eb08a1efc89cdae8904dbc7eeb97f508548c6e7ac5815b389713bed2b153f-1","properties":{"facility_id":"df9eb08a1efc89cdae8904dbc7eeb97f508548c6e7ac5815b389713bed2b153f","point_ordinal":1,"zone_group_id":"361101020497","source_manage_no":"361101020497","facility_name":"반곡초등학교","sgg_code":"36110","facility_type_code":"1","api_first_registered_on":"2019-06-10","api_last_modified_on":null,"updated_at":"2026-07-31T00:20:57.057893+00:00"},"geometry":{"type":"Point","coordinates":[127.310503283,36.500496761]}},{"type":"Feature","id":"2fe3bd288c3833a8b112ca9094436780666734e85c9b8e614456949ee43945bd-1","properties":{"facility_id":"2fe3bd288c3833a8b112ca9094436780666734e85c9b8e614456949ee43945bd","point_ordinal":1,"zone_group_id":"361101011602","source_manage_no":"361101011601","facility_name":"보람유치원","sgg_code":"36110","facility_type_code":"1","api_first_registered_on":"2016-09-07","api_last_modified_on":null,"updated_at":"2026-07-31T00:20:57.057893+00:00"},"geometry":{"type":"Point","coordinates":[127.293640929,36.478943895]}},{"type":"Feature","id":"d8c113804de86553e7cfaf751c093ae437744b05324d3fd7a2aca52f9b52921a-1","properties":{"facility_id":"d8c113804de86553e7cfaf751c093ae437744b05324d3fd7a2aca52f9b52921a","point_ordinal":1,"zone_group_id":"361101011602","source_manage_no":"361101011602","facility_name":"보람초등학교","sgg_code":"36110","facility_type_code":"1","api_first_registered_on":"2016-09-07","api_last_modified_on":null,"updated_at":"2026-07-31T00:20:57.057893+00:00"},"geometry":{"type":"Point","coordinates":[127.293334602,36.479679092]}},{"type":"Feature","id":"417181e13b04e75518f30cf4978ce09dcd10825f93ade4d97bbbe7e9dd30f31c-1","properties":{"facility_id":"417181e13b04e75518f30cf4978ce09dcd10825f93ade4d97bbbe7e9dd30f31c","point_ordinal":1,"zone_group_id":"361101011600","source_manage_no":"361101011600","facility_name":"부강어린이집","sgg_code":"36110","facility_type_code":"1","api_first_registered_on":"2012-03-02","api_last_modified_on":null,"updated_at":"2026-07-31T00:20:57.057893+00:00"},"geometry":{"type":"Point","coordinates":[127.379606681,36.52690835]}},{"type":"Feature","id":"f9d48f918c2a4924ff15ee2a2a8e09e58122ab0016947ac41ef94df89826891e-1","properties":{"facility_id":"f9d48f918c2a4924ff15ee2a2a8e09e58122ab0016947ac41ef94df89826891e","point_ordinal":1,"zone_group_id":"361101011604","source_manage_no":"361101011604","facility_name":"부강초등학교","sgg_code":"36110","facility_type_code":"1","api_first_registered_on":"1998-03-01","api_last_modified_on":null,"updated_at":"2026-07-31T00:20:57.057893+00:00"},"geometry":{"type":"Point","coordinates":[127.36664732,36.527627025]}},{"type":"Feature","id":"8724e8ed707dca5f7ccc27ad8754b87f89e72918d96b9ad921dcff8772b53fad-1","properties":{"facility_id":"8724e8ed707dca5f7ccc27ad8754b87f89e72918d96b9ad921dcff8772b53fad","point_ordinal":1,"zone_group_id":"361101011604","source_manage_no":"361101011605","facility_name":"부강초등학교병설유치원","sgg_code":"36110","facility_type_code":"1","api_first_registered_on":"1998-03-01","api_last_modified_on":null,"updated_at":"2026-07-31T00:20:57.057893+00:00"},"geometry":{"type":"Point","coordinates":[127.366660225,36.527403951]}},{"type":"Feature","id":"5b0991d7c8244d088ca9b4bc8d69fc9f760aa05ef49ee49e5fd4bc5a5db8a6aa-1","properties":{"facility_id":"5b0991d7c8244d088ca9b4bc8d69fc9f760aa05ef49ee49e5fd4bc5a5db8a6aa","point_ordinal":1,"zone_group_id":"361101029745","source_manage_no":"361101029746","facility_name":"산울유치원","sgg_code":"36110","facility_type_code":"1","api_first_registered_on":"2024-08-26","api_last_modified_on":"2025-11-26","updated_at":"2026-07-31T00:20:57.057893+00:00"},"geometry":{"type":"Point","coordinates":[127.263545216,36.532458637]}},{"type":"Feature","id":"601a0506b88839a3f723807d478287e04f0014f681215c735711e63d2e937826-1","properties":{"facility_id":"601a0506b88839a3f723807d478287e04f0014f681215c735711e63d2e937826","point_ordinal":1,"zone_group_id":"361101029745","source_manage_no":"361101029745","facility_name":"산울초등학교","sgg_code":"36110","facility_type_code":"1","api_first_registered_on":"2024-08-26","api_last_modified_on":"2025-11-26","updated_at":"2026-07-31T00:20:57.057893+00:00"},"geometry":{"type":"Point","coordinates":[127.264190002,36.533521852]}},{"type":"Feature","id":"4ad444fbc7528de0c9c73b871507bba1ae68f2d1096ebca6f9526f65284dc65d-1","properties":{"facility_id":"4ad444fbc7528de0c9c73b871507bba1ae68f2d1096ebca6f9526f65284dc65d","point_ordinal":1,"zone_group_id":"361101011607","source_manage_no":"361101020481","facility_name":"새뜸유치원","sgg_code":"36110","facility_type_code":"1","api_first_registered_on":"2017-07-14","api_last_modified_on":null,"updated_at":"2026-07-31T00:20:57.057893+00:00"},"geometry":{"type":"Point","coordinates":[127.252796678,36.485666732]}},{"type":"Feature","id":"8c46e248fba6a5337e2c1caae94acdaee22f906414ded3ea22cf8a3679a39f9d-1","properties":{"facility_id":"8c46e248fba6a5337e2c1caae94acdaee22f906414ded3ea22cf8a3679a39f9d","point_ordinal":1,"zone_group_id":"361101011607","source_manage_no":"361101011607","facility_name":"새뜸초등학교","sgg_code":"36110","facility_type_code":"1","api_first_registered_on":"2017-07-14","api_last_modified_on":null,"updated_at":"2026-07-31T00:20:57.057893+00:00"},"geometry":{"type":"Point","coordinates":[127.253307268,36.485794868]}},{"type":"Feature","id":"499cac539f33118f34ba5a92a45109bc9cbf1fb590e0400cdbbbeba3d7ea9e3a-1","properties":{"facility_id":"499cac539f33118f34ba5a92a45109bc9cbf1fb590e0400cdbbbeba3d7ea9e3a","point_ordinal":1,"zone_group_id":"361101011608","source_manage_no":"361101020479","facility_name":"새롬유치원","sgg_code":"36110","facility_type_code":"1","api_first_registered_on":"2017-07-14","api_last_modified_on":null,"updated_at":"2026-07-31T00:20:57.057893+00:00"},"geometry":{"type":"Point","coordinates":[127.248721493,36.485599828]}},{"type":"Feature","id":"45ac0c833ccbba830449f80a28626be87369d24cde27fefef59a60a6716841b0-1","properties":{"facility_id":"45ac0c833ccbba830449f80a28626be87369d24cde27fefef59a60a6716841b0","point_ordinal":1,"zone_group_id":"361101011608","source_manage_no":"361101011608","facility_name":"새롬초등학교","sgg_code":"36110","facility_type_code":"1","api_first_registered_on":"2017-07-14","api_last_modified_on":null,"updated_at":"2026-07-31T00:20:57.057893+00:00"},"geometry":{"type":"Point","coordinates":[127.2493349,36.485696365]}},{"type":"Feature","id":"652ef726ef4ae0ddb93ec1da8f62c5d0c5d716e44befedeabc12fdd7e26bb71b-1","properties":{"facility_id":"652ef726ef4ae0ddb93ec1da8f62c5d0c5d716e44befedeabc12fdd7e26bb71b","point_ordinal":1,"zone_group_id":"361101011609","source_manage_no":"361101029590","facility_name":"새샘유치원","sgg_code":"36110","facility_type_code":"1","api_first_registered_on":null,"api_last_modified_on":"2025-12-08","updated_at":"2026-07-31T00:20:57.057893+00:00"},"geometry":{"type":"Point","coordinates":[127.300713729,36.488392072]}},{"type":"Feature","id":"9e897cbf0d8579c6929a5de34ccad956634a6baa91198513e91cd9f23b75b4af-1","properties":{"facility_id":"9e897cbf0d8579c6929a5de34ccad956634a6baa91198513e91cd9f23b75b4af","point_ordinal":1,"zone_group_id":"361101020484","source_manage_no":"361101020484","facility_name":"새솔유치원","sgg_code":"36110","facility_type_code":"1","api_first_registered_on":"2018-09-04","api_last_modified_on":null,"updated_at":"2026-07-31T00:20:57.057893+00:00"},"geometry":{"type":"Point","coordinates":[127.237665264,36.498186619]}},{"type":"Feature","id":"fd87cbcb65e74026cdf0e463d57cc9b490179f757ea88d823062ca70db9b1514-1","properties":{"facility_id":"fd87cbcb65e74026cdf0e463d57cc9b490179f757ea88d823062ca70db9b1514","point_ordinal":1,"zone_group_id":"361101020486","source_manage_no":"361101028169","facility_name":"새움유치원","sgg_code":"36110","facility_type_code":"1","api_first_registered_on":"2018-09-04","api_last_modified_on":null,"updated_at":"2026-07-31T00:20:57.057893+00:00"},"geometry":{"type":"Point","coordinates":[127.250989176,36.493964356]}},{"type":"Feature","id":"125d377617a1b41c1cd599f8ff08fedcd777eb845589e6c2ffd444eaeea7ee4d-1","properties":{"facility_id":"125d377617a1b41c1cd599f8ff08fedcd777eb845589e6c2ffd444eaeea7ee4d","point_ordinal":1,"zone_group_id":"361101020486","source_manage_no":"361101020486","facility_name":"새움초등학교","sgg_code":"36110","facility_type_code":"1","api_first_registered_on":"2018-09-04","api_last_modified_on":null,"updated_at":"2026-07-31T00:20:57.057893+00:00"},"geometry":{"type":"Point","coordinates":[127.251396217,36.494076445]}},{"type":"Feature","id":"16ee64bf72e5ad9a4a13fbdfd1e295fdf2ee70bd75d05057b99a000f3d0a2287-1","properties":{"facility_id":"16ee64bf72e5ad9a4a13fbdfd1e295fdf2ee70bd75d05057b99a000f3d0a2287","point_ordinal":1,"zone_group_id":"361101011579","source_manage_no":"361101011579","facility_name":"세종누리학교","sgg_code":"36110","facility_type_code":"1","api_first_registered_on":"2016-09-07","api_last_modified_on":null,"updated_at":"2026-07-31T00:20:57.057893+00:00"},"geometry":{"type":"Point","coordinates":[127.242741973,36.525390807]}},{"type":"Feature","id":"cfc4bb461fa4872a03a9df12f0534aeeee816966be9c6e984e55de045ab525d8-1","properties":{"facility_id":"cfc4bb461fa4872a03a9df12f0534aeeee816966be9c6e984e55de045ab525d8","point_ordinal":1,"zone_group_id":"361101011649","source_manage_no":"361101011649","facility_name":"세종도원초등학교","sgg_code":"36110","facility_type_code":"1","api_first_registered_on":"2010-03-08","api_last_modified_on":null,"updated_at":"2026-07-31T00:20:57.057893+00:00"},"geometry":{"type":"Point","coordinates":[127.287258678,36.585908226]}},{"type":"Feature","id":"14b120fa8f5ddf10cb207cc697386aeb9d63c910f9590789ffb087434021f89a-1","properties":{"facility_id":"14b120fa8f5ddf10cb207cc697386aeb9d63c910f9590789ffb087434021f89a","point_ordinal":1,"zone_group_id":"361101020494","source_manage_no":"361101020494","facility_name":"세종영재어린이집","sgg_code":"36110","facility_type_code":"1","api_first_registered_on":"2018-11-12","api_last_modified_on":null,"updated_at":"2026-07-31T00:20:57.057893+00:00"},"geometry":{"type":"Point","coordinates":[127.298320944,36.589043692]}},{"type":"Feature","id":"4e79d99d5bd8e29089547fc37d5a6cbb18f8b920a91a3d9554554c16f47ce7b4-1","properties":{"facility_id":"4e79d99d5bd8e29089547fc37d5a6cbb18f8b920a91a3d9554554c16f47ce7b4","point_ordinal":1,"zone_group_id":"361101027042","source_manage_no":"361101027042","facility_name":"세종이음학교","sgg_code":"36110","facility_type_code":"1","api_first_registered_on":"2023-02-28","api_last_modified_on":null,"updated_at":"2026-07-31T00:20:57.057893+00:00"},"geometry":{"type":"Point","coordinates":[127.337281553,36.500326963]}},{"type":"Feature","id":"634178cf5d55378e4f8e95a8e54627221b0480a7f9a040da55c4b9d44c214663-1","properties":{"facility_id":"634178cf5d55378e4f8e95a8e54627221b0480a7f9a040da55c4b9d44c214663","point_ordinal":1,"zone_group_id":"361102030154","source_manage_no":"361102030154","facility_name":"세종재가노인지원센터","sgg_code":"36110","facility_type_code":"2","api_first_registered_on":null,"api_last_modified_on":"2026-07-14","updated_at":"2026-07-31T00:20:57.057893+00:00"},"geometry":{"type":"Point","coordinates":[127.301055966,36.596292903]}},{"type":"Feature","id":"913b0723ce025885b1722f6dd6a02d95ad3d94f99fc1b265b52c411722c58f13-1","properties":{"facility_id":"913b0723ce025885b1722f6dd6a02d95ad3d94f99fc1b265b52c411722c58f13","point_ordinal":1,"zone_group_id":"361102030153","source_manage_no":"361102030153","facility_name":"세종특별자치시 노인복지관","sgg_code":"36110","facility_type_code":"2","api_first_registered_on":null,"api_last_modified_on":"2026-07-14","updated_at":"2026-07-31T00:20:57.057893+00:00"},"geometry":{"type":"Point","coordinates":[127.303439772,36.600729823]}},{"type":"Feature","id":"2daa0c6791e8fe252ffdf80c61183282c3edd4f637a2e59fb8acf0e27800f6b0-1","properties":{"facility_id":"2daa0c6791e8fe252ffdf80c61183282c3edd4f637a2e59fb8acf0e27800f6b0","point_ordinal":1,"zone_group_id":"361101024630","source_manage_no":"361101024630","facility_name":"세종푸르니어린이집","sgg_code":"36110","facility_type_code":"1","api_first_registered_on":"2021-11-11","api_last_modified_on":null,"updated_at":"2026-07-31T00:20:57.057893+00:00"},"geometry":{"type":"Point","coordinates":[127.310017611,36.482521995]}},{"type":"Feature","id":"ba180cdff643bc291554693bc2e5bab725a284a01923a4a6c00c9e7cc5c349ab-1","properties":{"facility_id":"ba180cdff643bc291554693bc2e5bab725a284a01923a4a6c00c9e7cc5c349ab","point_ordinal":1,"zone_group_id":"361101011611","source_manage_no":"361101011610","facility_name":"소담유치원","sgg_code":"36110","facility_type_code":"1","api_first_registered_on":"2016-09-07","api_last_modified_on":null,"updated_at":"2026-07-31T00:20:57.057893+00:00"},"geometry":{"type":"Point","coordinates":[127.30150816,36.483675994]}},{"type":"Feature","id":"57762885507b001d0241092e31f0ccf6dfec31d8efa52f63758d961b78407027-1","properties":{"facility_id":"57762885507b001d0241092e31f0ccf6dfec31d8efa52f63758d961b78407027","point_ordinal":1,"zone_group_id":"361101011611","source_manage_no":"361101011611","facility_name":"소담초등학교","sgg_code":"36110","facility_type_code":"1","api_first_registered_on":"2016-09-07","api_last_modified_on":null,"updated_at":"2026-07-31T00:20:57.057893+00:00"},"geometry":{"type":"Point","coordinates":[127.301438812,36.483058876]}},{"type":"Feature","id":"6f6c2c6a9834c3f3321d38246de43212d4ea9d3ca51c0ed392f90a275b8b5d0b-1","properties":{"facility_id":"6f6c2c6a9834c3f3321d38246de43212d4ea9d3ca51c0ed392f90a275b8b5d0b","point_ordinal":1,"zone_group_id":"361101011612","source_manage_no":"361101011612","facility_name":"소정초등학교","sgg_code":"36110","facility_type_code":"1","api_first_registered_on":"2000-09-01","api_last_modified_on":null,"updated_at":"2026-07-31T00:20:57.057893+00:00"},"geometry":{"type":"Point","coordinates":[127.159044085,36.721131635]}},{"type":"Feature","id":"d39e8e179b020dc7a8d2fc4a44bad83911a4b8db4834c0a985c3ac4f6ad0b3ff-1","properties":{"facility_id":"d39e8e179b020dc7a8d2fc4a44bad83911a4b8db4834c0a985c3ac4f6ad0b3ff","point_ordinal":1,"zone_group_id":"361101011612","source_manage_no":"361101011613","facility_name":"소정초등학교병설유치원","sgg_code":"36110","facility_type_code":"1","api_first_registered_on":"2000-09-01","api_last_modified_on":null,"updated_at":"2026-07-31T00:20:57.057893+00:00"},"geometry":{"type":"Point","coordinates":[127.159043751,36.720969433]}},{"type":"Feature","id":"a7067353d1e74317bce812c4e70acd022ced12789456bebff8e5fa872a97d071-1","properties":{"facility_id":"a7067353d1e74317bce812c4e70acd022ced12789456bebff8e5fa872a97d071","point_ordinal":1,"zone_group_id":"361101011618","source_manage_no":"361101011618","facility_name":"솔비타어린이집","sgg_code":"36110","facility_type_code":"1","api_first_registered_on":"2017-12-27","api_last_modified_on":null,"updated_at":"2026-07-31T00:20:57.057893+00:00"},"geometry":{"type":"Point","coordinates":[127.26396284,36.508164923]}},{"type":"Feature","id":"1196a223a0d04cced7982b4655cabae60349c0ebfa0940f43c1b1aad363bbe69-1","properties":{"facility_id":"1196a223a0d04cced7982b4655cabae60349c0ebfa0940f43c1b1aad363bbe69","point_ordinal":1,"zone_group_id":"361101020496","source_manage_no":"361101020496","facility_name":"솔빛숲유치원","sgg_code":"36110","facility_type_code":"1","api_first_registered_on":"2019-02-14","api_last_modified_on":null,"updated_at":"2026-07-31T00:20:57.057893+00:00"},"geometry":{"type":"Point","coordinates":[127.313929418,36.493882611]}},{"type":"Feature","id":"77da4b19d68d7b881824f7674b5ee99b104be8901c2aee148e8788eb2b6d30fb-1","properties":{"facility_id":"77da4b19d68d7b881824f7674b5ee99b104be8901c2aee148e8788eb2b6d30fb","point_ordinal":1,"zone_group_id":"361101020495","source_manage_no":"361101020495","facility_name":"솔빛초등학교","sgg_code":"36110","facility_type_code":"1","api_first_registered_on":"2019-02-14","api_last_modified_on":null,"updated_at":"2026-07-31T00:20:57.057893+00:00"},"geometry":{"type":"Point","coordinates":[127.312397701,36.495817956]}},{"type":"Feature","id":"e847890ac4953c75d24422a315ba53a2b649ec808f4d9fa0a013947ba755d96b-1","properties":{"facility_id":"e847890ac4953c75d24422a315ba53a2b649ec808f4d9fa0a013947ba755d96b","point_ordinal":1,"zone_group_id":"361101020495","source_manage_no":"361101029787","facility_name":"솔빛초등학교 병설유치원","sgg_code":"36110","facility_type_code":"1","api_first_registered_on":null,"api_last_modified_on":"2025-12-08","updated_at":"2026-07-31T00:20:57.057893+00:00"},"geometry":{"type":"Point","coordinates":[127.312375615,36.49588519]}},{"type":"Feature","id":"6fd91dc622889e4f9fdeb19171681326c05838ff57f2ca7ed31ca44a00d380c0-1","properties":{"facility_id":"6fd91dc622889e4f9fdeb19171681326c05838ff57f2ca7ed31ca44a00d380c0","point_ordinal":1,"zone_group_id":"361101011668","source_manage_no":"361101011668","facility_name":"송원어린이집","sgg_code":"36110","facility_type_code":"1","api_first_registered_on":"2014-03-02","api_last_modified_on":null,"updated_at":"2026-07-31T00:20:57.057893+00:00"},"geometry":{"type":"Point","coordinates":[127.251839803,36.479802311]}},{"type":"Feature","id":"8dd940e44b50aada86ee8de919a90a596077b1cc7bdf3dad662ddad2aaf5cb22-1","properties":{"facility_id":"8dd940e44b50aada86ee8de919a90a596077b1cc7bdf3dad662ddad2aaf5cb22","point_ordinal":1,"zone_group_id":"361102011637","source_manage_no":"361102011637","facility_name":"송학2리마을회관","sgg_code":"36110","facility_type_code":"2","api_first_registered_on":"2012-04-03","api_last_modified_on":null,"updated_at":"2026-07-31T00:20:57.057893+00:00"},"geometry":{"type":"Point","coordinates":[127.190650629,36.539012492]}},{"type":"Feature","id":"2d68547473cf1aaa5751a63a9b94513e04263d97e4263139291fc21744c8d29a-1","properties":{"facility_id":"2d68547473cf1aaa5751a63a9b94513e04263d97e4263139291fc21744c8d29a","point_ordinal":1,"zone_group_id":"361101011589","source_manage_no":"361101011589","facility_name":"수왕초등학교","sgg_code":"36110","facility_type_code":"1","api_first_registered_on":"2006-10-20","api_last_modified_on":null,"updated_at":"2026-07-31T00:20:57.057893+00:00"},"geometry":{"type":"Point","coordinates":[127.252249647,36.543586263]}},{"type":"Feature","id":"9e79ccd9c424cb8037be997ecfab8b45c227c259706b45366e8caa3c6dcc85a9-1","properties":{"facility_id":"9e79ccd9c424cb8037be997ecfab8b45c227c259706b45366e8caa3c6dcc85a9","point_ordinal":1,"zone_group_id":"361101011580","source_manage_no":"361101011580","facility_name":"슬기유치원","sgg_code":"36110","facility_type_code":"1","api_first_registered_on":"2015-04-16","api_last_modified_on":null,"updated_at":"2026-07-31T00:20:57.057893+00:00"},"geometry":{"type":"Point","coordinates":[127.241769543,36.520466696]}},{"type":"Feature","id":"3644a190acb3dedd535045d43c26a8432eda39158582fd6b5b6056f98955744e-1","properties":{"facility_id":"3644a190acb3dedd535045d43c26a8432eda39158582fd6b5b6056f98955744e","point_ordinal":1,"zone_group_id":"361101011654","source_manage_no":"361101011654","facility_name":"신봉초등학교","sgg_code":"36110","facility_type_code":"1","api_first_registered_on":"2010-03-08","api_last_modified_on":null,"updated_at":"2026-07-31T00:20:57.057893+00:00"},"geometry":{"type":"Point","coordinates":[127.288145575,36.603798492]}},{"type":"Feature","id":"a5094b8c8080936c36d7e5797c103f2a94bc60fae63e5b16cf8574a3259ef429-1","properties":{"facility_id":"a5094b8c8080936c36d7e5797c103f2a94bc60fae63e5b16cf8574a3259ef429","point_ordinal":1,"zone_group_id":"361101011654","source_manage_no":"361101011655","facility_name":"신봉초등학교병설유치원","sgg_code":"36110","facility_type_code":"1","api_first_registered_on":"2010-03-08","api_last_modified_on":null,"updated_at":"2026-07-31T00:20:57.057893+00:00"},"geometry":{"type":"Point","coordinates":[127.289119247,36.60339738]}},{"type":"Feature","id":"9c1a7a26e90b12ec5f6d8404fd7c9f2116a9bc743816e7c124b374220408c3e1-1","properties":{"facility_id":"9c1a7a26e90b12ec5f6d8404fd7c9f2116a9bc743816e7c124b374220408c3e1","point_ordinal":1,"zone_group_id":"361101011626","source_manage_no":"361101011626","facility_name":"쌍류초등학교","sgg_code":"36110","facility_type_code":"1","api_first_registered_on":"2006-10-20","api_last_modified_on":null,"updated_at":"2026-07-31T00:20:57.057893+00:00"},"geometry":{"type":"Point","coordinates":[127.209997306,36.599300512]}},{"type":"Feature","id":"79ee64b40f3c72b3ec5823f8242aeeb8bf294ede052fda026109bd7801c84743-1","properties":{"facility_id":"79ee64b40f3c72b3ec5823f8242aeeb8bf294ede052fda026109bd7801c84743","point_ordinal":1,"zone_group_id":"361101011626","source_manage_no":"361101011627","facility_name":"쌍류초등학교병설유치원","sgg_code":"36110","facility_type_code":"1","api_first_registered_on":"2006-10-20","api_last_modified_on":null,"updated_at":"2026-07-31T00:20:57.057893+00:00"},"geometry":{"type":"Point","coordinates":[127.210005187,36.599115764]}},{"type":"Feature","id":"f0ed635f2506e86dcf58297e2f265d4a4c4b10c28c534da6eff88cf11d9e92f4-1","properties":{"facility_id":"f0ed635f2506e86dcf58297e2f265d4a4c4b10c28c534da6eff88cf11d9e92f4","point_ordinal":1,"zone_group_id":"361101020492","source_manage_no":"361101020492","facility_name":"아름유치원","sgg_code":"36110","facility_type_code":"1","api_first_registered_on":null,"api_last_modified_on":null,"updated_at":"2026-07-31T00:20:57.057893+00:00"},"geometry":{"type":"Point","coordinates":[127.244961158,36.515040133]}},{"type":"Feature","id":"fce2703bcbbb7c87748d71f0450944b9e1a4bf0585a5464ca61a038dd95fe5b8-1","properties":{"facility_id":"fce2703bcbbb7c87748d71f0450944b9e1a4bf0585a5464ca61a038dd95fe5b8","point_ordinal":1,"zone_group_id":"361101020491","source_manage_no":"361101020491","facility_name":"아름초등학교","sgg_code":"36110","facility_type_code":"1","api_first_registered_on":"2015-04-01","api_last_modified_on":null,"updated_at":"2026-07-31T00:20:57.057893+00:00"},"geometry":{"type":"Point","coordinates":[127.251724949,36.514557452]}},{"type":"Feature","id":"b3fea6a70d5bf2e90f5f331e872fb990127affb8e34b31f2c05d44a1ea9169f6-1","properties":{"facility_id":"b3fea6a70d5bf2e90f5f331e872fb990127affb8e34b31f2c05d44a1ea9169f6","point_ordinal":1,"zone_group_id":"361101020505","source_manage_no":"361101020506","facility_name":"양지유치원","sgg_code":"36110","facility_type_code":"1","api_first_registered_on":"2014-11-01","api_last_modified_on":null,"updated_at":"2026-07-31T00:20:57.057893+00:00"},"geometry":{"type":"Point","coordinates":[127.261128565,36.518600578]}},{"type":"Feature","id":"450ee5315c102da7b6eb8956f3309b03af412d18e6e072d9476c86b400a8a888-1","properties":{"facility_id":"450ee5315c102da7b6eb8956f3309b03af412d18e6e072d9476c86b400a8a888","point_ordinal":1,"zone_group_id":"361101020505","source_manage_no":"361101020505","facility_name":"양지초등학교","sgg_code":"36110","facility_type_code":"1","api_first_registered_on":"2014-11-01","api_last_modified_on":null,"updated_at":"2026-07-31T00:20:57.057893+00:00"},"geometry":{"type":"Point","coordinates":[127.260285489,36.518552857]}},{"type":"Feature","id":"dbeae864a17712af110c6ed441e3517bb14eabde99233e6d06b79c5274f0936b-1","properties":{"facility_id":"dbeae864a17712af110c6ed441e3517bb14eabde99233e6d06b79c5274f0936b","point_ordinal":1,"zone_group_id":"361101011603","source_manage_no":"361101020482","facility_name":"여울유치원","sgg_code":"36110","facility_type_code":"1","api_first_registered_on":"2017-07-14","api_last_modified_on":null,"updated_at":"2026-07-31T00:20:57.057893+00:00"},"geometry":{"type":"Point","coordinates":[127.284910132,36.475569733]}},{"type":"Feature","id":"9dba4dae4b57c0599c3e3aac4680793115ab5a7d1f25f51c70438566b74910b7-1","properties":{"facility_id":"9dba4dae4b57c0599c3e3aac4680793115ab5a7d1f25f51c70438566b74910b7","point_ordinal":1,"zone_group_id":"361101011603","source_manage_no":"361101011603","facility_name":"여울초등학교","sgg_code":"36110","facility_type_code":"1","api_first_registered_on":"2017-07-14","api_last_modified_on":null,"updated_at":"2026-07-31T00:20:57.057893+00:00"},"geometry":{"type":"Point","coordinates":[127.284736691,36.476042579]}},{"type":"Feature","id":"12119a967d5fdd33a01859ea9b88552400c2c60bdda6598b2418d87752406c9e-1","properties":{"facility_id":"12119a967d5fdd33a01859ea9b88552400c2c60bdda6598b2418d87752406c9e","point_ordinal":1,"zone_group_id":"361101011622","source_manage_no":"361101011622","facility_name":"연남초등학교","sgg_code":"36110","facility_type_code":"1","api_first_registered_on":"1997-04-01","api_last_modified_on":null,"updated_at":"2026-07-31T00:20:57.057893+00:00"},"geometry":{"type":"Point","coordinates":[127.278339576,36.543631505]}},{"type":"Feature","id":"51323a50dba582b30acb1ff44313394df87954c6293017b9fb78e0d5721796d5-1","properties":{"facility_id":"51323a50dba582b30acb1ff44313394df87954c6293017b9fb78e0d5721796d5","point_ordinal":1,"zone_group_id":"361101011622","source_manage_no":"361101011623","facility_name":"연남초등학교병설유치원","sgg_code":"36110","facility_type_code":"1","api_first_registered_on":"1997-04-01","api_last_modified_on":null,"updated_at":"2026-07-31T00:20:57.057893+00:00"},"geometry":{"type":"Point","coordinates":[127.278327891,36.543487349]}},{"type":"Feature","id":"b4b53e0fd2d9d24267d724492f110bf3d18b442129c32506c239311e081ce964-1","properties":{"facility_id":"b4b53e0fd2d9d24267d724492f110bf3d18b442129c32506c239311e081ce964","point_ordinal":1,"zone_group_id":"361101011624","source_manage_no":"361101011624","facility_name":"연동초등학교","sgg_code":"36110","facility_type_code":"1","api_first_registered_on":"2006-10-20","api_last_modified_on":null,"updated_at":"2026-07-31T00:20:57.057893+00:00"},"geometry":{"type":"Point","coordinates":[127.326669514,36.559945433]}},{"type":"Feature","id":"e3b6d57d0c1a7f205c6cf850dd9f713fe6f07770ac8c270dff2e48b04ccc0091-1","properties":{"facility_id":"e3b6d57d0c1a7f205c6cf850dd9f713fe6f07770ac8c270dff2e48b04ccc0091","point_ordinal":1,"zone_group_id":"361101011624","source_manage_no":"361101011625","facility_name":"연동초등학교 병설유치원","sgg_code":"36110","facility_type_code":"1","api_first_registered_on":"2006-10-20","api_last_modified_on":null,"updated_at":"2026-07-31T00:20:57.057893+00:00"},"geometry":{"type":"Point","coordinates":[127.326675573,36.56005806]}},{"type":"Feature","id":"cd2a4ffdee803c9cf374ab44ebbdf74c7a15fc03c314e08b272add6cf2661aa1-1","properties":{"facility_id":"cd2a4ffdee803c9cf374ab44ebbdf74c7a15fc03c314e08b272add6cf2661aa1","point_ordinal":1,"zone_group_id":"361101011629","source_manage_no":"361101011629","facility_name":"연봉초등학교","sgg_code":"36110","facility_type_code":"1","api_first_registered_on":"1997-04-01","api_last_modified_on":null,"updated_at":"2026-07-31T00:20:57.057893+00:00"},"geometry":{"type":"Point","coordinates":[127.282311251,36.564274967]}},{"type":"Feature","id":"e6cc1419c8d0705ce28aaf1e6758f35d6a8e36234837d7bfe845cfd24b0fb4ef-1","properties":{"facility_id":"e6cc1419c8d0705ce28aaf1e6758f35d6a8e36234837d7bfe845cfd24b0fb4ef","point_ordinal":1,"zone_group_id":"361101011629","source_manage_no":"361101011630","facility_name":"연봉초등학교 병설유치원","sgg_code":"36110","facility_type_code":"1","api_first_registered_on":"1997-04-01","api_last_modified_on":null,"updated_at":"2026-07-31T00:20:57.057893+00:00"},"geometry":{"type":"Point","coordinates":[127.282619018,36.564429685]}},{"type":"Feature","id":"5693a7ce7adb54f29ed2610625381797249ed3aaff6aa0818f9b831e155ccc17-1","properties":{"facility_id":"5693a7ce7adb54f29ed2610625381797249ed3aaff6aa0818f9b831e155ccc17","point_ordinal":1,"zone_group_id":"361101011631","source_manage_no":"361101011631","facility_name":"연서초등학교","sgg_code":"36110","facility_type_code":"1","api_first_registered_on":"2006-10-20","api_last_modified_on":null,"updated_at":"2026-07-31T00:20:57.057893+00:00"},"geometry":{"type":"Point","coordinates":[127.254086971,36.582904409]}},{"type":"Feature","id":"a209f22cc6d8794b4de33a178256dbfa82f10550d72e65078e9d28241476a255-1","properties":{"facility_id":"a209f22cc6d8794b4de33a178256dbfa82f10550d72e65078e9d28241476a255","point_ordinal":1,"zone_group_id":"361101011631","source_manage_no":"361101011632","facility_name":"연서초등학교 병설유치원","sgg_code":"36110","facility_type_code":"1","api_first_registered_on":"2006-10-20","api_last_modified_on":null,"updated_at":"2026-07-31T00:20:57.057893+00:00"},"geometry":{"type":"Point","coordinates":[127.25408624,36.582681377]}},{"type":"Feature","id":"bd0c092cfcb4c12f69e4aa0a6366878b990ceac272d3dc9b4bae9f716571e194-1","properties":{"facility_id":"bd0c092cfcb4c12f69e4aa0a6366878b990ceac272d3dc9b4bae9f716571e194","point_ordinal":1,"zone_group_id":"361101011619","source_manage_no":"361101020489","facility_name":"연세유치원","sgg_code":"36110","facility_type_code":"1","api_first_registered_on":"2013-10-30","api_last_modified_on":null,"updated_at":"2026-07-31T00:20:57.057893+00:00"},"geometry":{"type":"Point","coordinates":[127.271823473,36.505067127]}},{"type":"Feature","id":"60b4ea0011a5d5bf5c6d7b537a171d7fecb479677c25771f116154bb13e5ef9d-1","properties":{"facility_id":"60b4ea0011a5d5bf5c6d7b537a171d7fecb479677c25771f116154bb13e5ef9d","point_ordinal":1,"zone_group_id":"361101011619","source_manage_no":"361101011619","facility_name":"연세초등학교","sgg_code":"36110","facility_type_code":"1","api_first_registered_on":"2013-10-30","api_last_modified_on":null,"updated_at":"2026-07-31T00:20:57.057893+00:00"},"geometry":{"type":"Point","coordinates":[127.27185556,36.505644894]}},{"type":"Feature","id":"9db8660cca46fd24513e5bca57f8186780e6b3473fbf78997ac1d06da6585fb9-1","properties":{"facility_id":"9db8660cca46fd24513e5bca57f8186780e6b3473fbf78997ac1d06da6585fb9","point_ordinal":1,"zone_group_id":"361101011621","source_manage_no":"361101011620","facility_name":"연양유치원","sgg_code":"36110","facility_type_code":"1","api_first_registered_on":"2015-03-02","api_last_modified_on":null,"updated_at":"2026-07-31T00:20:57.057893+00:00"},"geometry":{"type":"Point","coordinates":[127.255514933,36.502763113]}},{"type":"Feature","id":"5b655d985ab9c74e0625c096ce12fa0e49cd4a2e5f4a1f2093bbe284fe5b259f-1","properties":{"facility_id":"5b655d985ab9c74e0625c096ce12fa0e49cd4a2e5f4a1f2093bbe284fe5b259f","point_ordinal":1,"zone_group_id":"361101011621","source_manage_no":"361101011621","facility_name":"연양초등학교","sgg_code":"36110","facility_type_code":"1","api_first_registered_on":"2015-03-02","api_last_modified_on":null,"updated_at":"2026-07-31T00:20:57.057893+00:00"},"geometry":{"type":"Point","coordinates":[127.256099511,36.503174138]}},{"type":"Feature","id":"aa5f5d918218cac515a6d32bb4c472ee6a44df15473e07bf7a0eaecd5a37c8cf-1","properties":{"facility_id":"aa5f5d918218cac515a6d32bb4c472ee6a44df15473e07bf7a0eaecd5a37c8cf","point_ordinal":1,"zone_group_id":"361101011582","source_manage_no":"361101011581","facility_name":"온빛유치원","sgg_code":"36110","facility_type_code":"1","api_first_registered_on":"2015-04-15","api_last_modified_on":null,"updated_at":"2026-07-31T00:20:57.057893+00:00"},"geometry":{"type":"Point","coordinates":[127.239958368,36.514215126]}},{"type":"Feature","id":"37d85d39b723adb2b1e758455b79d54dc56e1afddb83d081d034bdb974aa2350-1","properties":{"facility_id":"37d85d39b723adb2b1e758455b79d54dc56e1afddb83d081d034bdb974aa2350","point_ordinal":1,"zone_group_id":"361101011582","source_manage_no":"361101011582","facility_name":"온빛초등학교","sgg_code":"36110","facility_type_code":"1","api_first_registered_on":"2015-04-15","api_last_modified_on":null,"updated_at":"2026-07-31T00:20:57.057893+00:00"},"geometry":{"type":"Point","coordinates":[127.240442476,36.514626429]}},{"type":"Feature","id":"dafe95f7be8b89ad9acf18ef45616f006472ff2e9d15fd1a13b339f3490201a7-1","properties":{"facility_id":"dafe95f7be8b89ad9acf18ef45616f006472ff2e9d15fd1a13b339f3490201a7","point_ordinal":1,"zone_group_id":"361101011662","source_manage_no":"361101011662","facility_name":"올망유치원","sgg_code":"36110","facility_type_code":"1","api_first_registered_on":"2015-03-02","api_last_modified_on":null,"updated_at":"2026-07-31T00:20:57.057893+00:00"},"geometry":{"type":"Point","coordinates":[127.254650402,36.501023052]}},{"type":"Feature","id":"5d1b139a739719507c2876b0353699088cdcce64deade24d30ff70d14b875aed-1","properties":{"facility_id":"5d1b139a739719507c2876b0353699088cdcce64deade24d30ff70d14b875aed","point_ordinal":1,"zone_group_id":"361101011584","source_manage_no":"361101011583","facility_name":"으뜸유치원","sgg_code":"36110","facility_type_code":"1","api_first_registered_on":"2015-03-02","api_last_modified_on":null,"updated_at":"2026-07-31T00:20:57.057893+00:00"},"geometry":{"type":"Point","coordinates":[127.230781133,36.509207332]}},{"type":"Feature","id":"b7ec3a59155cec427e4deb479918005552ee3cf364afe77b02eeb7a7102f57fa-1","properties":{"facility_id":"b7ec3a59155cec427e4deb479918005552ee3cf364afe77b02eeb7a7102f57fa","point_ordinal":1,"zone_group_id":"361101011584","source_manage_no":"361101011584","facility_name":"으뜸초등학교","sgg_code":"36110","facility_type_code":"1","api_first_registered_on":"2015-03-02","api_last_modified_on":null,"updated_at":"2026-07-31T00:20:57.057893+00:00"},"geometry":{"type":"Point","coordinates":[127.230952936,36.509734175]}},{"type":"Feature","id":"b8c15a717b27946138aa7b3461bc3d715d974287a152300ca919b0598d4de102-1","properties":{"facility_id":"b8c15a717b27946138aa7b3461bc3d715d974287a152300ca919b0598d4de102","point_ordinal":1,"zone_group_id":"361101011633","source_manage_no":"361101011633","facility_name":"의랑초등학교","sgg_code":"36110","facility_type_code":"1","api_first_registered_on":"2010-11-15","api_last_modified_on":null,"updated_at":"2026-07-31T00:20:57.057893+00:00"},"geometry":{"type":"Point","coordinates":[127.190717316,36.550345882]}},{"type":"Feature","id":"c8bde033dfb891854a49dd0e805002dec83a710f5b64b724ad06c95c8a098ea1-1","properties":{"facility_id":"c8bde033dfb891854a49dd0e805002dec83a710f5b64b724ad06c95c8a098ea1","point_ordinal":1,"zone_group_id":"361101011633","source_manage_no":"361101011634","facility_name":"의랑초등학교 병설유치원","sgg_code":"36110","facility_type_code":"1","api_first_registered_on":"2010-11-15","api_last_modified_on":null,"updated_at":"2026-07-31T00:20:57.057893+00:00"},"geometry":{"type":"Point","coordinates":[127.190722674,36.550253505]}},{"type":"Feature","id":"9678418746b7188cb554480a33a28ca40bb7313785d04f4ac2df3d1e11ca8d5b-1","properties":{"facility_id":"9678418746b7188cb554480a33a28ca40bb7313785d04f4ac2df3d1e11ca8d5b","point_ordinal":1,"zone_group_id":"361101011636","source_manage_no":"361101011636","facility_name":"장기초등학교","sgg_code":"36110","facility_type_code":"1","api_first_registered_on":"2010-11-15","api_last_modified_on":null,"updated_at":"2026-07-31T00:20:57.057893+00:00"},"geometry":{"type":"Point","coordinates":[127.205900928,36.496338799]}},{"type":"Feature","id":"4efdf37b3dd13498d69cc8a15a3ca1ca27b26276d17c4e01b5d50520316ce552-1","properties":{"facility_id":"4efdf37b3dd13498d69cc8a15a3ca1ca27b26276d17c4e01b5d50520316ce552","point_ordinal":1,"zone_group_id":"361101011636","source_manage_no":"361101011635","facility_name":"장기초등학교병설유치원","sgg_code":"36110","facility_type_code":"1","api_first_registered_on":"2010-11-15","api_last_modified_on":null,"updated_at":"2026-07-31T00:20:57.057893+00:00"},"geometry":{"type":"Point","coordinates":[127.205895187,36.496277981]}},{"type":"Feature","id":"f2e290b3d7422190cb0f039917d4d2c331069bbec0f6d3fd596a58cdfc8e6265-1","properties":{"facility_id":"f2e290b3d7422190cb0f039917d4d2c331069bbec0f6d3fd596a58cdfc8e6265","point_ordinal":1,"zone_group_id":"361101011638","source_manage_no":"361101011638","facility_name":"전동초등학교","sgg_code":"36110","facility_type_code":"1","api_first_registered_on":"2006-10-20","api_last_modified_on":null,"updated_at":"2026-07-31T00:20:57.057893+00:00"},"geometry":{"type":"Point","coordinates":[127.265628922,36.656459831]}},{"type":"Feature","id":"fcb67c7ed11751d407055cfee3e767119e8b4d5b49bb55690cad0eb9ed56b05e-1","properties":{"facility_id":"fcb67c7ed11751d407055cfee3e767119e8b4d5b49bb55690cad0eb9ed56b05e","point_ordinal":1,"zone_group_id":"361101011638","source_manage_no":"361101011639","facility_name":"전동초등학교병설유치원","sgg_code":"36110","facility_type_code":"1","api_first_registered_on":"2006-10-20","api_last_modified_on":null,"updated_at":"2026-07-31T00:20:57.057893+00:00"},"geometry":{"type":"Point","coordinates":[127.265632917,36.656809011]}},{"type":"Feature","id":"7b4b2051201eb3380b175fb2178d7453689fcae56748d19b1b6b00aa0d7eeb41-1","properties":{"facility_id":"7b4b2051201eb3380b175fb2178d7453689fcae56748d19b1b6b00aa0d7eeb41","point_ordinal":1,"zone_group_id":"361102011643","source_manage_no":"361102011643","facility_name":"전의복지회관","sgg_code":"36110","facility_type_code":"2","api_first_registered_on":"2016-12-12","api_last_modified_on":null,"updated_at":"2026-07-31T00:20:57.057893+00:00"},"geometry":{"type":"Point","coordinates":[127.208061726,36.679996722]}},{"type":"Feature","id":"14be89eb773f255b74c1cc58e5606e9ed619d233e8cf131c381cf5ba8dd724e9-1","properties":{"facility_id":"14be89eb773f255b74c1cc58e5606e9ed619d233e8cf131c381cf5ba8dd724e9","point_ordinal":1,"zone_group_id":"361101011641","source_manage_no":"361101011641","facility_name":"전의초등학교","sgg_code":"36110","facility_type_code":"1","api_first_registered_on":"1997-04-01","api_last_modified_on":null,"updated_at":"2026-07-31T00:20:57.057893+00:00"},"geometry":{"type":"Point","coordinates":[127.202928545,36.680681328]}},{"type":"Feature","id":"6f5c6219deadc51c83c185bbc0fa87a00931eb9cb87e78083d2a61c0595b42c2-1","properties":{"facility_id":"6f5c6219deadc51c83c185bbc0fa87a00931eb9cb87e78083d2a61c0595b42c2","point_ordinal":1,"zone_group_id":"361101011641","source_manage_no":"361101011642","facility_name":"전의초등학교 병설유치원","sgg_code":"36110","facility_type_code":"1","api_first_registered_on":"1997-04-01","api_last_modified_on":null,"updated_at":"2026-07-31T00:20:57.057893+00:00"},"geometry":{"type":"Point","coordinates":[127.202301167,36.680353483]}},{"type":"Feature","id":"5bc8d595092480dc9c90c77db9207af5cd6f1d9fd982c6b18cc115255531e79a-1","properties":{"facility_id":"5bc8d595092480dc9c90c77db9207af5cd6f1d9fd982c6b18cc115255531e79a","point_ordinal":1,"zone_group_id":"361101026061","source_manage_no":"361101026061","facility_name":"정희어린이집","sgg_code":"36110","facility_type_code":"1","api_first_registered_on":null,"api_last_modified_on":null,"updated_at":"2026-07-31T00:20:57.057893+00:00"},"geometry":{"type":"Point","coordinates":[127.281816842,36.455783909]}},{"type":"Feature","id":"fb7713d631a4654556bb11847fbe72f84e549fb3e1ac26de51747c93cb6d24ba-1","properties":{"facility_id":"fb7713d631a4654556bb11847fbe72f84e549fb3e1ac26de51747c93cb6d24ba","point_ordinal":1,"zone_group_id":"361102030152","source_manage_no":"361102030152","facility_name":"조치원전통시장","sgg_code":"36110","facility_type_code":"2","api_first_registered_on":null,"api_last_modified_on":"2026-07-14","updated_at":"2026-07-31T00:20:57.057893+00:00"},"geometry":{"type":"Point","coordinates":[127.299602429,36.601315422]}},{"type":"Feature","id":"af585da9f65938c53cb4e10b36c17b8b909e194f6125acf77359239ae4a3bdb3-1","properties":{"facility_id":"af585da9f65938c53cb4e10b36c17b8b909e194f6125acf77359239ae4a3bdb3","point_ordinal":1,"zone_group_id":"361101011663","source_manage_no":"361101011664","facility_name":"종촌유치원","sgg_code":"36110","facility_type_code":"1","api_first_registered_on":"2015-03-02","api_last_modified_on":null,"updated_at":"2026-07-31T00:20:57.057893+00:00"},"geometry":{"type":"Point","coordinates":[127.241689501,36.502342179]}},{"type":"Feature","id":"335f817233575948cfa3e8387a815122da7d15dec35c8ef5d8c29204e68ba0e0-1","properties":{"facility_id":"335f817233575948cfa3e8387a815122da7d15dec35c8ef5d8c29204e68ba0e0","point_ordinal":1,"zone_group_id":"361101011663","source_manage_no":"361101011663","facility_name":"종촌초등학교","sgg_code":"36110","facility_type_code":"1","api_first_registered_on":"2015-03-02","api_last_modified_on":null,"updated_at":"2026-07-31T00:20:57.057893+00:00"},"geometry":{"type":"Point","coordinates":[127.241993092,36.503053476]}},{"type":"Feature","id":"c8090870ee4fe217c1445ed78fda2f0f52008e3e5acea36e89df75c82aa90429-1","properties":{"facility_id":"c8090870ee4fe217c1445ed78fda2f0f52008e3e5acea36e89df75c82aa90429","point_ordinal":1,"zone_group_id":"361101011656","source_manage_no":"361101011656","facility_name":"죽림어린이집","sgg_code":"36110","facility_type_code":"1","api_first_registered_on":"2007-04-20","api_last_modified_on":null,"updated_at":"2026-07-31T00:20:57.057893+00:00"},"geometry":{"type":"Point","coordinates":[127.292939606,36.590270436]}},{"type":"Feature","id":"ffea89845cbb9bf3a58b86c58783e5fe9f737664a4bf9db63e81d65bbe2637e0-1","properties":{"facility_id":"ffea89845cbb9bf3a58b86c58783e5fe9f737664a4bf9db63e81d65bbe2637e0","point_ordinal":1,"zone_group_id":"361101027046","source_manage_no":"361101027045","facility_name":"집현유치원","sgg_code":"36110","facility_type_code":"1","api_first_registered_on":"2022-02-28","api_last_modified_on":null,"updated_at":"2026-07-31T00:20:57.057893+00:00"},"geometry":{"type":"Point","coordinates":[127.320561123,36.48948711]}},{"type":"Feature","id":"0383a36b6ec3f8881ac3a2452aaf21693576cdb134d6f3370ef6b9bdbe28859d-1","properties":{"facility_id":"0383a36b6ec3f8881ac3a2452aaf21693576cdb134d6f3370ef6b9bdbe28859d","point_ordinal":1,"zone_group_id":"361101027046","source_manage_no":"361101027046","facility_name":"집현초등학교","sgg_code":"36110","facility_type_code":"1","api_first_registered_on":"2022-02-28","api_last_modified_on":null,"updated_at":"2026-07-31T00:20:57.057893+00:00"},"geometry":{"type":"Point","coordinates":[127.320363604,36.4889492]}},{"type":"Feature","id":"7a558fa6c934d2d38b20b208e2212fc28976930c37dfb6735d4754bc4b05305b-1","properties":{"facility_id":"7a558fa6c934d2d38b20b208e2212fc28976930c37dfb6735d4754bc4b05305b","point_ordinal":1,"zone_group_id":"361101020499","source_manage_no":"361101020499","facility_name":"차오름어린이집","sgg_code":"36110","facility_type_code":"1","api_first_registered_on":"2019-06-10","api_last_modified_on":null,"updated_at":"2026-07-31T00:20:57.057893+00:00"},"geometry":{"type":"Point","coordinates":[127.266335437,36.496977916]}},{"type":"Feature","id":"d394b6be0cb80bc15e50cb3fd6799232b009ea65cc0124146eb1bf40f1e83e20-1","properties":{"facility_id":"d394b6be0cb80bc15e50cb3fd6799232b009ea65cc0124146eb1bf40f1e83e20","point_ordinal":1,"zone_group_id":"361101011670","source_manage_no":"361101011669","facility_name":"참샘유치원","sgg_code":"36110","facility_type_code":"1","api_first_registered_on":"2012-05-01","api_last_modified_on":null,"updated_at":"2026-07-31T00:20:57.057893+00:00"},"geometry":{"type":"Point","coordinates":[127.259411936,36.479460423]}},{"type":"Feature","id":"6ec874ee2057a38ff833cec8ba3c380d2c33bd1a430290f387a795f25c4df9f7-1","properties":{"facility_id":"6ec874ee2057a38ff833cec8ba3c380d2c33bd1a430290f387a795f25c4df9f7","point_ordinal":1,"zone_group_id":"361101011670","source_manage_no":"361101011670","facility_name":"참샘초등학교","sgg_code":"36110","facility_type_code":"1","api_first_registered_on":"2012-05-01","api_last_modified_on":null,"updated_at":"2026-07-31T00:20:57.057893+00:00"},"geometry":{"type":"Point","coordinates":[127.258652661,36.479317886]}},{"type":"Feature","id":"7905b3ae7bd0d2268065943f7f614ee37e6579314327a398b521405fa1bfa832-1","properties":{"facility_id":"7905b3ae7bd0d2268065943f7f614ee37e6579314327a398b521405fa1bfa832","point_ordinal":1,"zone_group_id":"361101011599","source_manage_no":"361101011599","facility_name":"초롱별유치원","sgg_code":"36110","facility_type_code":"1","api_first_registered_on":"2015-03-02","api_last_modified_on":null,"updated_at":"2026-07-31T00:20:57.057893+00:00"},"geometry":{"type":"Point","coordinates":[127.256573063,36.509854568]}},{"type":"Feature","id":"cdec997ca32ca84730fb586722484b73ac40cb846fbae53638b59c51587e7bfc-1","properties":{"facility_id":"cdec997ca32ca84730fb586722484b73ac40cb846fbae53638b59c51587e7bfc","point_ordinal":1,"zone_group_id":"361101020485","source_manage_no":"361101028165","facility_name":"한결유치원","sgg_code":"36110","facility_type_code":"1","api_first_registered_on":"2018-09-04","api_last_modified_on":null,"updated_at":"2026-07-31T00:20:57.057893+00:00"},"geometry":{"type":"Point","coordinates":[127.245297024,36.496814013]}},{"type":"Feature","id":"ccacc61874ede2975142960d13bc7f9e5d679d0824fa54b97f21d62aff31f9da-1","properties":{"facility_id":"ccacc61874ede2975142960d13bc7f9e5d679d0824fa54b97f21d62aff31f9da","point_ordinal":1,"zone_group_id":"361101020485","source_manage_no":"361101020485","facility_name":"한결초등학교","sgg_code":"36110","facility_type_code":"1","api_first_registered_on":"2018-09-04","api_last_modified_on":null,"updated_at":"2026-07-31T00:20:57.057893+00:00"},"geometry":{"type":"Point","coordinates":[127.245901942,36.496629157]}},{"type":"Feature","id":"e1dfe563b8c431eeaf6ebe9f0f268483290e630260e33ec8f52b6a1911bf2659-1","properties":{"facility_id":"e1dfe563b8c431eeaf6ebe9f0f268483290e630260e33ec8f52b6a1911bf2659","point_ordinal":1,"zone_group_id":"361101020483","source_manage_no":"361101020483","facility_name":"한빛유치원","sgg_code":"36110","facility_type_code":"1","api_first_registered_on":"2017-07-14","api_last_modified_on":null,"updated_at":"2026-07-31T00:20:57.057893+00:00"},"geometry":{"type":"Point","coordinates":[127.284092099,36.478332837]}},{"type":"Feature","id":"4e552e795b07db262002f5f27d0994d23e4f2f48d19136a08ae662ad2fe22dce-1","properties":{"facility_id":"4e552e795b07db262002f5f27d0994d23e4f2f48d19136a08ae662ad2fe22dce","point_ordinal":1,"zone_group_id":"361101011672","source_manage_no":"361101011672","facility_name":"한솔초등학교","sgg_code":"36110","facility_type_code":"1","api_first_registered_on":"2012-10-01","api_last_modified_on":null,"updated_at":"2026-07-31T00:20:57.057893+00:00"},"geometry":{"type":"Point","coordinates":[127.252614542,36.477361571]}},{"type":"Feature","id":"f73aa64dac27ad30dc050fc0bf185844b8b1456086791d2f13892e5a380b9052-1","properties":{"facility_id":"f73aa64dac27ad30dc050fc0bf185844b8b1456086791d2f13892e5a380b9052","point_ordinal":1,"zone_group_id":"361101011672","source_manage_no":"361101011671","facility_name":"한솔초등학교 병설유치원","sgg_code":"36110","facility_type_code":"1","api_first_registered_on":"2012-10-01","api_last_modified_on":null,"updated_at":"2026-07-31T00:20:57.057893+00:00"},"geometry":{"type":"Point","coordinates":[127.25234774,36.477670783]}},{"type":"Feature","id":"e550d151d14ea588abcda7c87c2aa93dbec022b8ff4a770936af9a39ebbf71d0-1","properties":{"facility_id":"e550d151d14ea588abcda7c87c2aa93dbec022b8ff4a770936af9a39ebbf71d0","point_ordinal":1,"zone_group_id":"361101011603","source_manage_no":"361101029770","facility_name":"해들유치원","sgg_code":"36110","facility_type_code":"1","api_first_registered_on":null,"api_last_modified_on":"2025-12-03","updated_at":"2026-07-31T00:20:57.057893+00:00"},"geometry":{"type":"Point","coordinates":[127.282794141,36.473584924]}},{"type":"Feature","id":"ceba12535acba24e0ec029273e31c8b233d6b9a3857bfbe60ffb7f2be18d9bfd-1","properties":{"facility_id":"ceba12535acba24e0ec029273e31c8b233d6b9a3857bfbe60ffb7f2be18d9bfd","point_ordinal":1,"zone_group_id":"361101020501","source_manage_no":"361101020502","facility_name":"해밀유치원","sgg_code":"36110","facility_type_code":"1","api_first_registered_on":null,"api_last_modified_on":null,"updated_at":"2026-07-31T00:20:57.057893+00:00"},"geometry":{"type":"Point","coordinates":[127.269163802,36.524918866]}},{"type":"Feature","id":"8c6e66223ba4d013e33a82cab5ddf0334a56f3c033f676ca190936a3a84673c4-1","properties":{"facility_id":"8c6e66223ba4d013e33a82cab5ddf0334a56f3c033f676ca190936a3a84673c4","point_ordinal":1,"zone_group_id":"361101020501","source_manage_no":"361101020501","facility_name":"해밀초등학교","sgg_code":"36110","facility_type_code":"1","api_first_registered_on":null,"api_last_modified_on":null,"updated_at":"2026-07-31T00:20:57.057893+00:00"},"geometry":{"type":"Point","coordinates":[127.268468207,36.52556701]}}]}