{"type":"FeatureCollection","features":[{"id":"29cafffcea0267a02e1e63bc63c425e259086d2c4e4bf53584b85f3380afef5a:400770","type":"Feature","geometry":{"type":"MultiLineString","coordinates":[[[127.076011368,37.493065687],[127.076062533,37.49311785]]]},"properties":{"name":null,"rank":1,"ufid":"A00200000007WVSWY","link_id":"400770","zone_id":"29cafffcea0267a02e1e63bc63c425e259086d2c4e4bf53584b85f3380afef5a","rule_code":"GEOMETRY_RULE_EXCLUDED","distance_m":6.02,"link_length_m":7.34,"candidate_grade":null,"intersection_ratio":0.0,"intersection_length_m":0.0,"proximity_overlap_ratio":0.0,"proximity_overlap_length_m":0.0}},{"id":"29cafffcea0267a02e1e63bc63c425e259086d2c4e4bf53584b85f3380afef5a:400768","type":"Feature","geometry":{"type":"MultiLineString","coordinates":[[[127.07602362,37.492982048],[127.076010558,37.493024763],[127.076011368,37.493065687]]]},"properties":{"name":null,"rank":2,"ufid":"A00200000007WVSTV","link_id":"400768","zone_id":"29cafffcea0267a02e1e63bc63c425e259086d2c4e4bf53584b85f3380afef5a","rule_code":"GEOMETRY_RULE_EXCLUDED","distance_m":6.09,"link_length_m":9.42,"candidate_grade":null,"intersection_ratio":0.0,"intersection_length_m":0.0,"proximity_overlap_ratio":0.0,"proximity_overlap_length_m":0.0}},{"id":"29cafffcea0267a02e1e63bc63c425e259086d2c4e4bf53584b85f3380afef5a:400769","type":"Feature","geometry":{"type":"MultiLineString","coordinates":[[[127.076062533,37.49311785],[127.076708492,37.493709438]]]},"properties":{"name":null,"rank":3,"ufid":"A00200000007WVSUW","link_id":"400769","zone_id":"29cafffcea0267a02e1e63bc63c425e259086d2c4e4bf53584b85f3380afef5a","rule_code":"GEOMETRY_RULE_EXCLUDED","distance_m":8.42,"link_length_m":87.0,"candidate_grade":null,"intersection_ratio":0.0,"intersection_length_m":0.0,"proximity_overlap_ratio":0.0,"proximity_overlap_length_m":0.0}},{"id":"29cafffcea0267a02e1e63bc63c425e259086d2c4e4bf53584b85f3380afef5a:400771","type":"Feature","geometry":{"type":"MultiLineString","coordinates":[[[127.076159715,37.492708324],[127.076131856,37.492788883],[127.07602362,37.492982048]]]},"properties":{"name":null,"rank":4,"ufid":"A00200000007WVSXZ","link_id":"400771","zone_id":"29cafffcea0267a02e1e63bc63c425e259086d2c4e4bf53584b85f3380afef5a","rule_code":"GEOMETRY_RULE_EXCLUDED","distance_m":12.99,"link_length_m":32.74,"candidate_grade":null,"intersection_ratio":0.0,"intersection_length_m":0.0,"proximity_overlap_ratio":0.0,"proximity_overlap_length_m":0.0}},{"id":"90eaf1d21b5a5b12707b79a016dbbf3927072209563d7ac3cc99b32a9309e514:209975","type":"Feature","geometry":{"type":"MultiLineString","coordinates":[[[127.024040326,37.500088363],[127.024545296,37.500232501]]]},"properties":{"name":null,"rank":1,"ufid":"A00200000007RXB3L","link_id":"209975","zone_id":"90eaf1d21b5a5b12707b79a016dbbf3927072209563d7ac3cc99b32a9309e514","rule_code":"TOUCH_OR_GRAZE","distance_m":0.0,"link_length_m":47.41,"candidate_grade":null,"intersection_ratio":0.1506,"intersection_length_m":7.14,"proximity_overlap_ratio":0.2619,"proximity_overlap_length_m":12.42}},{"id":"a69a36b90c4367711079442b23a0b5ac213cb599b5f8a798c56903b7ba20c378:227417","type":"Feature","geometry":{"type":"MultiLineString","coordinates":[[[127.114640201,37.520636505],[127.114374662,37.520184559]]]},"properties":{"name":null,"rank":1,"ufid":"A00200000007SCAC9","link_id":"227417","zone_id":"a69a36b90c4367711079442b23a0b5ac213cb599b5f8a798c56903b7ba20c378","rule_code":"GEOMETRY_RULE_EXCLUDED","distance_m":17.77,"link_length_m":55.36,"candidate_grade":null,"intersection_ratio":0.0,"intersection_length_m":0.0,"proximity_overlap_ratio":0.0,"proximity_overlap_length_m":0.0}},{"id":"a69a36b90c4367711079442b23a0b5ac213cb599b5f8a798c56903b7ba20c378:227418","type":"Feature","geometry":{"type":"MultiLineString","coordinates":[[[127.114658767,37.520668148],[127.114640201,37.520636505]]]},"properties":{"name":null,"rank":2,"ufid":"A00200000007SCADA","link_id":"227418","zone_id":"a69a36b90c4367711079442b23a0b5ac213cb599b5f8a798c56903b7ba20c378","rule_code":"GEOMETRY_RULE_EXCLUDED","distance_m":18.01,"link_length_m":3.88,"candidate_grade":null,"intersection_ratio":0.0,"intersection_length_m":0.0,"proximity_overlap_ratio":0.0,"proximity_overlap_length_m":0.0}},{"id":"a69a36b90c4367711079442b23a0b5ac213cb599b5f8a798c56903b7ba20c378:227419","type":"Feature","geometry":{"type":"MultiLineString","coordinates":[[[127.114672105,37.520690859],[127.114658767,37.520668148]]]},"properties":{"name":null,"rank":3,"ufid":"A00200000007SCAEB","link_id":"227419","zone_id":"a69a36b90c4367711079442b23a0b5ac213cb599b5f8a798c56903b7ba20c378","rule_code":"GEOMETRY_RULE_EXCLUDED","distance_m":18.32,"link_length_m":2.78,"candidate_grade":null,"intersection_ratio":0.0,"intersection_length_m":0.0,"proximity_overlap_ratio":0.0,"proximity_overlap_length_m":0.0}},{"id":"a69a36b90c4367711079442b23a0b5ac213cb599b5f8a798c56903b7ba20c378:227420","type":"Feature","geometry":{"type":"MultiLineString","coordinates":[[[127.115599032,37.522211199],[127.115064203,37.521331423],[127.114885726,37.52105472],[127.114672105,37.520690859]]]},"properties":{"name":null,"rank":4,"ufid":"A00200000007SCAFC","link_id":"227420","zone_id":"a69a36b90c4367711079442b23a0b5ac213cb599b5f8a798c56903b7ba20c378","rule_code":"GEOMETRY_RULE_EXCLUDED","distance_m":18.89,"link_length_m":187.52,"candidate_grade":null,"intersection_ratio":0.0,"intersection_length_m":0.0,"proximity_overlap_ratio":0.0,"proximity_overlap_length_m":0.0}},{"id":"b284dea2709714a43fe2b66d703d0ed08ab2dc219f78b70c82f63b5fe741b6e4:356907","type":"Feature","geometry":{"type":"MultiLineString","coordinates":[[[127.133990281,37.522523152],[127.134268532,37.522399023]]]},"properties":{"name":null,"rank":1,"ufid":"A00200000007VLV2W","link_id":"356907","zone_id":"b284dea2709714a43fe2b66d703d0ed08ab2dc219f78b70c82f63b5fe741b6e4","rule_code":"A_NEAR_PARALLEL_CORRIDOR","distance_m":0.0,"link_length_m":28.18,"candidate_grade":"A","intersection_ratio":0.6222,"intersection_length_m":17.54,"proximity_overlap_ratio":0.9256,"proximity_overlap_length_m":26.09}},{"id":"b284dea2709714a43fe2b66d703d0ed08ab2dc219f78b70c82f63b5fe741b6e4:356914","type":"Feature","geometry":{"type":"MultiLineString","coordinates":[[[127.133580306,37.52270591],[127.133990281,37.522523152]]]},"properties":{"name":null,"rank":10,"ufid":"A00200000007VLV93","link_id":"356914","zone_id":"b284dea2709714a43fe2b66d703d0ed08ab2dc219f78b70c82f63b5fe741b6e4","rule_code":"GEOMETRY_RULE_EXCLUDED","distance_m":7.04,"link_length_m":41.52,"candidate_grade":null,"intersection_ratio":0.0,"intersection_length_m":0.0,"proximity_overlap_ratio":0.0,"proximity_overlap_length_m":0.0}},{"id":"b284dea2709714a43fe2b66d703d0ed08ab2dc219f78b70c82f63b5fe741b6e4:226020","type":"Feature","geometry":{"type":"MultiLineString","coordinates":[[[127.133825189,37.52336741],[127.134261688,37.523262768]]]},"properties":{"name":null,"rank":11,"ufid":"A00200000007SA8YR","link_id":"226020","zone_id":"b284dea2709714a43fe2b66d703d0ed08ab2dc219f78b70c82f63b5fe741b6e4","rule_code":"GEOMETRY_RULE_EXCLUDED","distance_m":7.07,"link_length_m":40.28,"candidate_grade":null,"intersection_ratio":0.0,"intersection_length_m":0.0,"proximity_overlap_ratio":0.0,"proximity_overlap_length_m":0.0}},{"id":"b284dea2709714a43fe2b66d703d0ed08ab2dc219f78b70c82f63b5fe741b6e4:356892","type":"Feature","geometry":{"type":"MultiLineString","coordinates":[[[127.134718309,37.523656671],[127.134681136,37.523552699]]]},"properties":{"name":null,"rank":12,"ufid":"A00200000007VLUNG","link_id":"356892","zone_id":"b284dea2709714a43fe2b66d703d0ed08ab2dc219f78b70c82f63b5fe741b6e4","rule_code":"GEOMETRY_RULE_EXCLUDED","distance_m":13.49,"link_length_m":11.99,"candidate_grade":null,"intersection_ratio":0.0,"intersection_length_m":0.0,"proximity_overlap_ratio":0.0,"proximity_overlap_length_m":0.0}},{"id":"b284dea2709714a43fe2b66d703d0ed08ab2dc219f78b70c82f63b5fe741b6e4:225952","type":"Feature","geometry":{"type":"MultiLineString","coordinates":[[[127.134261688,37.523262768],[127.134549323,37.523183964]]]},"properties":{"name":null,"rank":2,"ufid":"A00200000007SA72U","link_id":"225952","zone_id":"b284dea2709714a43fe2b66d703d0ed08ab2dc219f78b70c82f63b5fe741b6e4","rule_code":"A_NEAR_PARALLEL_CORRIDOR","distance_m":0.0,"link_length_m":26.88,"candidate_grade":"A","intersection_ratio":0.6445,"intersection_length_m":17.32,"proximity_overlap_ratio":0.9229,"proximity_overlap_length_m":24.81}},{"id":"b284dea2709714a43fe2b66d703d0ed08ab2dc219f78b70c82f63b5fe741b6e4:356891","type":"Feature","geometry":{"type":"MultiLineString","coordinates":[[[127.134681136,37.523552699],[127.13456174,37.523218751]]]},"properties":{"name":null,"rank":3,"ufid":"A00200000007VLUMF","link_id":"356891","zone_id":"b284dea2709714a43fe2b66d703d0ed08ab2dc219f78b70c82f63b5fe741b6e4","rule_code":"A_NEAR_PARALLEL_CORRIDOR","distance_m":2.19,"link_length_m":38.52,"candidate_grade":"A","intersection_ratio":0.0,"intersection_length_m":0.0,"proximity_overlap_ratio":0.7708,"proximity_overlap_length_m":29.69}},{"id":"b284dea2709714a43fe2b66d703d0ed08ab2dc219f78b70c82f63b5fe741b6e4:356917","type":"Feature","geometry":{"type":"MultiLineString","coordinates":[[[127.134537249,37.523150333],[127.134282789,37.522438947]]]},"properties":{"name":null,"rank":4,"ufid":"A00200000007VLVC6","link_id":"356917","zone_id":"b284dea2709714a43fe2b66d703d0ed08ab2dc219f78b70c82f63b5fe741b6e4","rule_code":"A_NEAR_PARALLEL_CORRIDOR","distance_m":2.51,"link_length_m":82.06,"candidate_grade":"A","intersection_ratio":0.0,"intersection_length_m":0.0,"proximity_overlap_ratio":1.0,"proximity_overlap_length_m":82.06}},{"id":"b284dea2709714a43fe2b66d703d0ed08ab2dc219f78b70c82f63b5fe741b6e4:357216","type":"Feature","geometry":{"type":"MultiLineString","coordinates":[[[127.134252925,37.522355361],[127.13402213,37.521709774]]]},"properties":{"name":null,"rank":5,"ufid":"A00200000007VMBCN","link_id":"357216","zone_id":"b284dea2709714a43fe2b66d703d0ed08ab2dc219f78b70c82f63b5fe741b6e4","rule_code":"A_NEAR_PARALLEL_CORRIDOR","distance_m":3.38,"link_length_m":74.47,"candidate_grade":"A","intersection_ratio":0.0,"intersection_length_m":0.0,"proximity_overlap_ratio":0.5123,"proximity_overlap_length_m":38.15}},{"id":"b284dea2709714a43fe2b66d703d0ed08ab2dc219f78b70c82f63b5fe741b6e4:225934","type":"Feature","geometry":{"type":"MultiLineString","coordinates":[[[127.13456174,37.523218751],[127.134549323,37.523183964]]]},"properties":{"name":null,"rank":6,"ufid":"A00200000007SA6KB","link_id":"225934","zone_id":"b284dea2709714a43fe2b66d703d0ed08ab2dc219f78b70c82f63b5fe741b6e4","rule_code":"GEOMETRY_RULE_EXCLUDED","distance_m":2.44,"link_length_m":4.01,"candidate_grade":null,"intersection_ratio":0.0,"intersection_length_m":0.0,"proximity_overlap_ratio":1.0,"proximity_overlap_length_m":4.01}},{"id":"b284dea2709714a43fe2b66d703d0ed08ab2dc219f78b70c82f63b5fe741b6e4:226015","type":"Feature","geometry":{"type":"MultiLineString","coordinates":[[[127.134549323,37.523183964],[127.134537249,37.523150333]]]},"properties":{"name":null,"rank":7,"ufid":"A00200000007SA8TM","link_id":"226015","zone_id":"b284dea2709714a43fe2b66d703d0ed08ab2dc219f78b70c82f63b5fe741b6e4","rule_code":"GEOMETRY_RULE_EXCLUDED","distance_m":2.48,"link_length_m":3.88,"candidate_grade":null,"intersection_ratio":0.0,"intersection_length_m":0.0,"proximity_overlap_ratio":1.0,"proximity_overlap_length_m":3.88}},{"id":"b284dea2709714a43fe2b66d703d0ed08ab2dc219f78b70c82f63b5fe741b6e4:356906","type":"Feature","geometry":{"type":"MultiLineString","coordinates":[[[127.134282789,37.522438947],[127.134268532,37.522399023]]]},"properties":{"name":null,"rank":8,"ufid":"A00200000007VLV1V","link_id":"356906","zone_id":"b284dea2709714a43fe2b66d703d0ed08ab2dc219f78b70c82f63b5fe741b6e4","rule_code":"GEOMETRY_RULE_EXCLUDED","distance_m":3.29,"link_length_m":4.61,"candidate_grade":null,"intersection_ratio":0.0,"intersection_length_m":0.0,"proximity_overlap_ratio":1.0,"proximity_overlap_length_m":4.61}},{"id":"b284dea2709714a43fe2b66d703d0ed08ab2dc219f78b70c82f63b5fe741b6e4:356918","type":"Feature","geometry":{"type":"MultiLineString","coordinates":[[[127.134268532,37.522399023],[127.134252925,37.522355361]]]},"properties":{"name":null,"rank":9,"ufid":"A00200000007VLVD7","link_id":"356918","zone_id":"b284dea2709714a43fe2b66d703d0ed08ab2dc219f78b70c82f63b5fe741b6e4","rule_code":"GEOMETRY_RULE_EXCLUDED","distance_m":3.33,"link_length_m":5.04,"candidate_grade":null,"intersection_ratio":0.0,"intersection_length_m":0.0,"proximity_overlap_ratio":1.0,"proximity_overlap_length_m":5.04}},{"id":"b6107f423e6f99e2f440f86e885c07229793478600eeb27046e7619865916fa6:144135","type":"Feature","geometry":{"type":"MultiLineString","coordinates":[[[126.925404418,37.615338132],[126.925683335,37.615150965],[126.925990673,37.614924867]]]},"properties":{"name":null,"rank":1,"ufid":"A00200000007Q6N9B","link_id":"144135","zone_id":"b6107f423e6f99e2f440f86e885c07229793478600eeb27046e7619865916fa6","rule_code":"GEOMETRY_RULE_EXCLUDED","distance_m":14.46,"link_length_m":69.15,"candidate_grade":null,"intersection_ratio":0.0,"intersection_length_m":0.0,"proximity_overlap_ratio":0.0,"proximity_overlap_length_m":0.0}},{"id":"b6c5845bedff269303f43801f171f689841c66a09df1493bb3599a2b4989dde1:208402","type":"Feature","geometry":{"type":"MultiLineString","coordinates":[[[127.001005149,37.505565684],[127.000983776,37.505624121]]]},"properties":{"name":null,"rank":1,"ufid":"A00200000007RW1Y5","link_id":"208402","zone_id":"b6c5845bedff269303f43801f171f689841c66a09df1493bb3599a2b4989dde1","rule_code":"GEOMETRY_RULE_EXCLUDED","distance_m":8.71,"link_length_m":6.75,"candidate_grade":null,"intersection_ratio":0.0,"intersection_length_m":0.0,"proximity_overlap_ratio":0.0,"proximity_overlap_length_m":0.0}},{"id":"b6c5845bedff269303f43801f171f689841c66a09df1493bb3599a2b4989dde1:208365","type":"Feature","geometry":{"type":"MultiLineString","coordinates":[[[127.000983776,37.505624121],[127.000585483,37.506506778]]]},"properties":{"name":null,"rank":2,"ufid":"A00200000007RVYHK","link_id":"208365","zone_id":"b6c5845bedff269303f43801f171f689841c66a09df1493bb3599a2b4989dde1","rule_code":"GEOMETRY_RULE_EXCLUDED","distance_m":8.71,"link_length_m":104.06,"candidate_grade":null,"intersection_ratio":0.0,"intersection_length_m":0.0,"proximity_overlap_ratio":0.0,"proximity_overlap_length_m":0.0}},{"id":"b6c5845bedff269303f43801f171f689841c66a09df1493bb3599a2b4989dde1:208412","type":"Feature","geometry":{"type":"MultiLineString","coordinates":[[[127.001027017,37.505499826],[127.001005149,37.505565684]]]},"properties":{"name":null,"rank":3,"ufid":"A00200000007RW28G","link_id":"208412","zone_id":"b6c5845bedff269303f43801f171f689841c66a09df1493bb3599a2b4989dde1","rule_code":"GEOMETRY_RULE_EXCLUDED","distance_m":9.44,"link_length_m":7.56,"candidate_grade":null,"intersection_ratio":0.0,"intersection_length_m":0.0,"proximity_overlap_ratio":0.0,"proximity_overlap_length_m":0.0}},{"id":"b6c5845bedff269303f43801f171f689841c66a09df1493bb3599a2b4989dde1:208401","type":"Feature","geometry":{"type":"MultiLineString","coordinates":[[[127.001053966,37.505407367],[127.001027017,37.505499826]]]},"properties":{"name":null,"rank":4,"ufid":"A00200000007RW1X4","link_id":"208401","zone_id":"b6c5845bedff269303f43801f171f689841c66a09df1493bb3599a2b4989dde1","rule_code":"GEOMETRY_RULE_EXCLUDED","distance_m":13.2,"link_length_m":10.53,"candidate_grade":null,"intersection_ratio":0.0,"intersection_length_m":0.0,"proximity_overlap_ratio":0.0,"proximity_overlap_length_m":0.0}},{"id":"b6c5845bedff269303f43801f171f689841c66a09df1493bb3599a2b4989dde1:208376","type":"Feature","geometry":{"type":"MultiLineString","coordinates":[[[127.001863362,37.505292266],[127.00194807,37.505317898]]]},"properties":{"name":null,"rank":5,"ufid":"A00200000007RVZ26","link_id":"208376","zone_id":"b6c5845bedff269303f43801f171f689841c66a09df1493bb3599a2b4989dde1","rule_code":"GEOMETRY_RULE_EXCLUDED","distance_m":19.52,"link_length_m":8.01,"candidate_grade":null,"intersection_ratio":0.0,"intersection_length_m":0.0,"proximity_overlap_ratio":0.0,"proximity_overlap_length_m":0.0}},{"id":"b6c5845bedff269303f43801f171f689841c66a09df1493bb3599a2b4989dde1:208377","type":"Feature","geometry":{"type":"MultiLineString","coordinates":[[[127.001813967,37.505276676],[127.001863362,37.505292266]]]},"properties":{"name":null,"rank":6,"ufid":"A00200000007RVZ37","link_id":"208377","zone_id":"b6c5845bedff269303f43801f171f689841c66a09df1493bb3599a2b4989dde1","rule_code":"GEOMETRY_RULE_EXCLUDED","distance_m":19.65,"link_length_m":4.7,"candidate_grade":null,"intersection_ratio":0.0,"intersection_length_m":0.0,"proximity_overlap_ratio":0.0,"proximity_overlap_length_m":0.0}},{"id":"b6c5845bedff269303f43801f171f689841c66a09df1493bb3599a2b4989dde1:208378","type":"Feature","geometry":{"type":"MultiLineString","coordinates":[[[127.001557329,37.505176912],[127.001813967,37.505276676]]]},"properties":{"name":null,"rank":7,"ufid":"A00200000007RVZ48","link_id":"208378","zone_id":"b6c5845bedff269303f43801f171f689841c66a09df1493bb3599a2b4989dde1","rule_code":"GEOMETRY_RULE_EXCLUDED","distance_m":19.94,"link_length_m":25.24,"candidate_grade":null,"intersection_ratio":0.0,"intersection_length_m":0.0,"proximity_overlap_ratio":0.0,"proximity_overlap_length_m":0.0}},{"id":"bb89fe0d2b7628bdb47339eddf87412526ddbb80c35a51f68b849a16f60c7f5c:214300","type":"Feature","geometry":{"type":"MultiLineString","coordinates":[[[127.009130925,37.595656254],[127.009239116,37.595609187],[127.009256665,37.595595311],[127.009261077,37.595569722],[127.009107601,37.595209247],[127.009049051,37.595141857],[127.008977481,37.595087263],[127.008778632,37.594980329],[127.008740579,37.594943122],[127.008712831,37.5948769],[127.008690284,37.594758061],[127.008633874,37.594593183],[127.008550517,37.594436237],[127.008507679,37.594123597],[127.008484797,37.594037553],[127.008383775,37.593870157],[127.008373582,37.593839973],[127.008373444,37.593620222],[127.008415772,37.593436507],[127.008443489,37.593229637],[127.008431817,37.593149449],[127.008396709,37.593077372],[127.008228304,37.592796095],[127.008129104,37.592693028],[127.007822345,37.592512399],[127.00768522,37.592470514],[127.007636187,37.592424295],[127.007319103,37.59200112],[127.007236545,37.591840118],[127.007155791,37.591615685],[127.007077017,37.591491254]]]},"properties":{"name":null,"rank":1,"ufid":"A00200000007S0Q23","link_id":"214300","zone_id":"bb89fe0d2b7628bdb47339eddf87412526ddbb80c35a51f68b849a16f60c7f5c","rule_code":"B_WEAK_OVERLAP","distance_m":0.0,"link_length_m":533.54,"candidate_grade":"B","intersection_ratio":0.1779,"intersection_length_m":94.93,"proximity_overlap_ratio":0.1974,"proximity_overlap_length_m":105.34}},{"id":"c250a27260a2b8a834076355011b94f1e6141321529cb3f445016c1517583aa4:173887","type":"Feature","geometry":{"type":"MultiLineString","coordinates":[[[126.91784539,37.489929511],[126.919934754,37.489996449],[126.921302857,37.490015444],[126.922138785,37.490035495],[126.92220835,37.49002289]]]},"properties":{"name":null,"rank":1,"ufid":"A00200000007R2HUN","link_id":"173887","zone_id":"c250a27260a2b8a834076355011b94f1e6141321529cb3f445016c1517583aa4","rule_code":"A_NEAR_PARALLEL_CORRIDOR","distance_m":0.11,"link_length_m":386.06,"candidate_grade":"A","intersection_ratio":0.0,"intersection_length_m":0.0,"proximity_overlap_ratio":1.0,"proximity_overlap_length_m":386.06}},{"id":"c250a27260a2b8a834076355011b94f1e6141321529cb3f445016c1517583aa4:180455","type":"Feature","geometry":{"type":"MultiLineString","coordinates":[[[126.922539912,37.489962822],[126.922278924,37.489833508],[126.922188879,37.48982479]]]},"properties":{"name":null,"rank":10,"ufid":"A00200000007R7N26","link_id":"180455","zone_id":"c250a27260a2b8a834076355011b94f1e6141321529cb3f445016c1517583aa4","rule_code":"GEOMETRY_RULE_EXCLUDED","distance_m":11.26,"link_length_m":35.19,"candidate_grade":null,"intersection_ratio":0.0,"intersection_length_m":0.0,"proximity_overlap_ratio":0.0,"proximity_overlap_length_m":0.0}},{"id":"c250a27260a2b8a834076355011b94f1e6141321529cb3f445016c1517583aa4:180494","type":"Feature","geometry":{"type":"MultiLineString","coordinates":[[[126.922539912,37.489962822],[126.922680035,37.489962039]]]},"properties":{"name":null,"rank":11,"ufid":"A00200000007R7O5A","link_id":"180494","zone_id":"c250a27260a2b8a834076355011b94f1e6141321529cb3f445016c1517583aa4","rule_code":"GEOMETRY_RULE_EXCLUDED","distance_m":11.26,"link_length_m":12.39,"candidate_grade":null,"intersection_ratio":0.0,"intersection_length_m":0.0,"proximity_overlap_ratio":0.0,"proximity_overlap_length_m":0.0}},{"id":"c250a27260a2b8a834076355011b94f1e6141321529cb3f445016c1517583aa4:173793","type":"Feature","geometry":{"type":"MultiLineString","coordinates":[[[126.922680035,37.489962039],[126.923984657,37.489991565]]]},"properties":{"name":null,"rank":12,"ufid":"A00200000007R2F8Z","link_id":"173793","zone_id":"c250a27260a2b8a834076355011b94f1e6141321529cb3f445016c1517583aa4","rule_code":"GEOMETRY_RULE_EXCLUDED","distance_m":16.38,"link_length_m":115.38,"candidate_grade":null,"intersection_ratio":0.0,"intersection_length_m":0.0,"proximity_overlap_ratio":0.0,"proximity_overlap_length_m":0.0}},{"id":"c250a27260a2b8a834076355011b94f1e6141321529cb3f445016c1517583aa4:173891","type":"Feature","geometry":{"type":"MultiLineString","coordinates":[[[126.917159623,37.489863827],[126.917348395,37.489899026],[126.917525373,37.489915593],[126.917692161,37.489922037]]]},"properties":{"name":null,"rank":2,"ufid":"A00200000007R2HYR","link_id":"173891","zone_id":"c250a27260a2b8a834076355011b94f1e6141321529cb3f445016c1517583aa4","rule_code":"A_NEAR_PARALLEL_CORRIDOR","distance_m":2.26,"link_length_m":47.65,"candidate_grade":"A","intersection_ratio":0.0,"intersection_length_m":0.0,"proximity_overlap_ratio":0.8819,"proximity_overlap_length_m":42.03}},{"id":"c250a27260a2b8a834076355011b94f1e6141321529cb3f445016c1517583aa4:180754","type":"Feature","geometry":{"type":"MultiLineString","coordinates":[[[126.91777333,37.489927077],[126.91784539,37.489929511]]]},"properties":{"name":null,"rank":3,"ufid":"A00200000007R7VDP","link_id":"180754","zone_id":"c250a27260a2b8a834076355011b94f1e6141321529cb3f445016c1517583aa4","rule_code":"GEOMETRY_RULE_EXCLUDED","distance_m":1.73,"link_length_m":6.38,"candidate_grade":null,"intersection_ratio":0.0,"intersection_length_m":0.0,"proximity_overlap_ratio":1.0,"proximity_overlap_length_m":6.38}},{"id":"c250a27260a2b8a834076355011b94f1e6141321529cb3f445016c1517583aa4:180438","type":"Feature","geometry":{"type":"MultiLineString","coordinates":[[[126.922539912,37.489962822],[126.922604384,37.49019482]]]},"properties":{"name":null,"rank":4,"ufid":"A00200000007R7MLO","link_id":"180438","zone_id":"c250a27260a2b8a834076355011b94f1e6141321529cb3f445016c1517583aa4","rule_code":"GEOMETRY_RULE_EXCLUDED","distance_m":1.85,"link_length_m":26.36,"candidate_grade":null,"intersection_ratio":0.0,"intersection_length_m":0.0,"proximity_overlap_ratio":0.6452,"proximity_overlap_length_m":17.01}},{"id":"c250a27260a2b8a834076355011b94f1e6141321529cb3f445016c1517583aa4:180759","type":"Feature","geometry":{"type":"MultiLineString","coordinates":[[[126.917692161,37.489922037],[126.91777333,37.489927077]]]},"properties":{"name":null,"rank":5,"ufid":"A00200000007R7VIU","link_id":"180759","zone_id":"c250a27260a2b8a834076355011b94f1e6141321529cb3f445016c1517583aa4","rule_code":"GEOMETRY_RULE_EXCLUDED","distance_m":1.94,"link_length_m":7.2,"candidate_grade":null,"intersection_ratio":0.0,"intersection_length_m":0.0,"proximity_overlap_ratio":1.0,"proximity_overlap_length_m":7.2}},{"id":"c250a27260a2b8a834076355011b94f1e6141321529cb3f445016c1517583aa4:180557","type":"Feature","geometry":{"type":"MultiLineString","coordinates":[[[126.92220835,37.49002289],[126.922539912,37.489962822]]]},"properties":{"name":null,"rank":6,"ufid":"A00200000007R7PW2","link_id":"180557","zone_id":"c250a27260a2b8a834076355011b94f1e6141321529cb3f445016c1517583aa4","rule_code":"GEOMETRY_RULE_EXCLUDED","distance_m":3.38,"link_length_m":30.06,"candidate_grade":null,"intersection_ratio":0.0,"intersection_length_m":0.0,"proximity_overlap_ratio":0.206,"proximity_overlap_length_m":6.19}},{"id":"c250a27260a2b8a834076355011b94f1e6141321529cb3f445016c1517583aa4:173892","type":"Feature","geometry":{"type":"MultiLineString","coordinates":[[[126.922604384,37.49019482],[126.92267374,37.49047881]]]},"properties":{"name":null,"rank":7,"ufid":"A00200000007R2HZS","link_id":"173892","zone_id":"c250a27260a2b8a834076355011b94f1e6141321529cb3f445016c1517583aa4","rule_code":"GEOMETRY_RULE_EXCLUDED","distance_m":6.33,"link_length_m":32.1,"candidate_grade":null,"intersection_ratio":0.0,"intersection_length_m":0.0,"proximity_overlap_ratio":0.0,"proximity_overlap_length_m":0.0}},{"id":"c250a27260a2b8a834076355011b94f1e6141321529cb3f445016c1517583aa4:180493","type":"Feature","geometry":{"type":"MultiLineString","coordinates":[[[126.917077373,37.489843118],[126.917159623,37.489863827]]]},"properties":{"name":null,"rank":8,"ufid":"A00200000007R7O49","link_id":"180493","zone_id":"c250a27260a2b8a834076355011b94f1e6141321529cb3f445016c1517583aa4","rule_code":"GEOMETRY_RULE_EXCLUDED","distance_m":10.19,"link_length_m":7.63,"candidate_grade":null,"intersection_ratio":0.0,"intersection_length_m":0.0,"proximity_overlap_ratio":0.0,"proximity_overlap_length_m":0.0}},{"id":"c250a27260a2b8a834076355011b94f1e6141321529cb3f445016c1517583aa4:179291","type":"Feature","geometry":{"type":"MultiLineString","coordinates":[[[126.922412996,37.489711854],[126.922539912,37.489962822]]]},"properties":{"name":null,"rank":9,"ufid":"A00200000007R6PAF","link_id":"179291","zone_id":"c250a27260a2b8a834076355011b94f1e6141321529cb3f445016c1517583aa4","rule_code":"GEOMETRY_RULE_EXCLUDED","distance_m":11.26,"link_length_m":30.02,"candidate_grade":null,"intersection_ratio":0.0,"intersection_length_m":0.0,"proximity_overlap_ratio":0.0,"proximity_overlap_length_m":0.0}},{"id":"ce3a78b333ac9e1d9a5ee1742542f7b7cb5018f382b53ada44da9ca60fc00910:388712","type":"Feature","geometry":{"type":"MultiLineString","coordinates":[[[127.102782213,37.498928156],[127.102671762,37.498904547]]]},"properties":{"name":null,"rank":1,"ufid":"A00200000007WIYVQ","link_id":"388712","zone_id":"ce3a78b333ac9e1d9a5ee1742542f7b7cb5018f382b53ada44da9ca60fc00910","rule_code":"TOUCH_OR_GRAZE","distance_m":0.0,"link_length_m":10.11,"candidate_grade":null,"intersection_ratio":0.0435,"intersection_length_m":0.44,"proximity_overlap_ratio":1.0,"proximity_overlap_length_m":10.11}},{"id":"ce3a78b333ac9e1d9a5ee1742542f7b7cb5018f382b53ada44da9ca60fc00910:388252","type":"Feature","geometry":{"type":"MultiLineString","coordinates":[[[127.102782213,37.498928156],[127.102719112,37.498965738]]]},"properties":{"name":null,"rank":2,"ufid":"A00200000007WIIR6","link_id":"388252","zone_id":"ce3a78b333ac9e1d9a5ee1742542f7b7cb5018f382b53ada44da9ca60fc00910","rule_code":"TOUCH_OR_GRAZE","distance_m":0.0,"link_length_m":6.96,"candidate_grade":null,"intersection_ratio":0.0121,"intersection_length_m":0.08,"proximity_overlap_ratio":0.8292,"proximity_overlap_length_m":5.77}},{"id":"ce3a78b333ac9e1d9a5ee1742542f7b7cb5018f382b53ada44da9ca60fc00910:388236","type":"Feature","geometry":{"type":"MultiLineString","coordinates":[[[127.102890625,37.498945727],[127.102782213,37.498928156]]]},"properties":{"name":null,"rank":3,"ufid":"A00200000007WIIBQ","link_id":"388236","zone_id":"ce3a78b333ac9e1d9a5ee1742542f7b7cb5018f382b53ada44da9ca60fc00910","rule_code":"TOUCH_OR_GRAZE","distance_m":0.0,"link_length_m":9.78,"candidate_grade":null,"intersection_ratio":0.0321,"intersection_length_m":0.31,"proximity_overlap_ratio":0.5501,"proximity_overlap_length_m":5.38}},{"id":"ce3a78b333ac9e1d9a5ee1742542f7b7cb5018f382b53ada44da9ca60fc00910:388711","type":"Feature","geometry":{"type":"MultiLineString","coordinates":[[[127.102671762,37.498904547],[127.101118989,37.498461235]]]},"properties":{"name":null,"rank":4,"ufid":"A00200000007WIYUP","link_id":"388711","zone_id":"ce3a78b333ac9e1d9a5ee1742542f7b7cb5018f382b53ada44da9ca60fc00910","rule_code":"TINY_ADJACENCY","distance_m":4.84,"link_length_m":145.8,"candidate_grade":null,"intersection_ratio":0.0,"intersection_length_m":0.0,"proximity_overlap_ratio":0.001,"proximity_overlap_length_m":0.15}},{"id":"ce3a78b333ac9e1d9a5ee1742542f7b7cb5018f382b53ada44da9ca60fc00910:387432","type":"Feature","geometry":{"type":"MultiLineString","coordinates":[[[127.102719112,37.498965738],[127.102611412,37.499189409]]]},"properties":{"name":null,"rank":5,"ufid":"A00200000007WHUB1","link_id":"387432","zone_id":"ce3a78b333ac9e1d9a5ee1742542f7b7cb5018f382b53ada44da9ca60fc00910","rule_code":"GEOMETRY_RULE_EXCLUDED","distance_m":6.05,"link_length_m":26.58,"candidate_grade":null,"intersection_ratio":0.0,"intersection_length_m":0.0,"proximity_overlap_ratio":0.0,"proximity_overlap_length_m":0.0}},{"id":"ce3a78b333ac9e1d9a5ee1742542f7b7cb5018f382b53ada44da9ca60fc00910:388237","type":"Feature","geometry":{"type":"MultiLineString","coordinates":[[[127.103806048,37.499224248],[127.102890625,37.498945727]]]},"properties":{"name":null,"rank":6,"ufid":"A00200000007WIICR","link_id":"388237","zone_id":"ce3a78b333ac9e1d9a5ee1742542f7b7cb5018f382b53ada44da9ca60fc00910","rule_code":"GEOMETRY_RULE_EXCLUDED","distance_m":9.34,"link_length_m":86.62,"candidate_grade":null,"intersection_ratio":0.0,"intersection_length_m":0.0,"proximity_overlap_ratio":0.0,"proximity_overlap_length_m":0.0}},{"id":"e7060a34cd85684bf3a4147e704a336e36698d2b22ef9e63804d85053bbc506a:208366","type":"Feature","geometry":{"type":"MultiLineString","coordinates":[[[127.000585483,37.506506778],[127.00057265,37.506535347]]]},"properties":{"name":null,"rank":1,"ufid":"A00200000007RVYIL","link_id":"208366","zone_id":"e7060a34cd85684bf3a4147e704a336e36698d2b22ef9e63804d85053bbc506a","rule_code":"GEOMETRY_RULE_EXCLUDED","distance_m":4.72,"link_length_m":3.37,"candidate_grade":null,"intersection_ratio":0.0,"intersection_length_m":0.0,"proximity_overlap_ratio":1.0,"proximity_overlap_length_m":3.37}},{"id":"e7060a34cd85684bf3a4147e704a336e36698d2b22ef9e63804d85053bbc506a:208367","type":"Feature","geometry":{"type":"MultiLineString","coordinates":[[[127.00057265,37.506535347],[127.000559728,37.506564112]]]},"properties":{"name":null,"rank":2,"ufid":"A00200000007RVYJM","link_id":"208367","zone_id":"e7060a34cd85684bf3a4147e704a336e36698d2b22ef9e63804d85053bbc506a","rule_code":"GEOMETRY_RULE_EXCLUDED","distance_m":4.72,"link_length_m":3.39,"candidate_grade":null,"intersection_ratio":0.0,"intersection_length_m":0.0,"proximity_overlap_ratio":0.4621,"proximity_overlap_length_m":1.57}},{"id":"e7060a34cd85684bf3a4147e704a336e36698d2b22ef9e63804d85053bbc506a:208365","type":"Feature","geometry":{"type":"MultiLineString","coordinates":[[[127.000983776,37.505624121],[127.000585483,37.506506778]]]},"properties":{"name":null,"rank":3,"ufid":"A00200000007RVYHK","link_id":"208365","zone_id":"e7060a34cd85684bf3a4147e704a336e36698d2b22ef9e63804d85053bbc506a","rule_code":"TINY_ADJACENCY","distance_m":4.99,"link_length_m":104.06,"candidate_grade":null,"intersection_ratio":0.0,"intersection_length_m":0.0,"proximity_overlap_ratio":0.0012,"proximity_overlap_length_m":0.12}},{"id":"e7060a34cd85684bf3a4147e704a336e36698d2b22ef9e63804d85053bbc506a:208368","type":"Feature","geometry":{"type":"MultiLineString","coordinates":[[[127.000559728,37.506564112],[127.000176479,37.507388073],[127.000131708,37.507436583]]]},"properties":{"name":null,"rank":4,"ufid":"A00200000007RVYKN","link_id":"208368","zone_id":"e7060a34cd85684bf3a4147e704a336e36698d2b22ef9e63804d85053bbc506a","rule_code":"GEOMETRY_RULE_EXCLUDED","distance_m":5.85,"link_length_m":104.17,"candidate_grade":null,"intersection_ratio":0.0,"intersection_length_m":0.0,"proximity_overlap_ratio":0.0,"proximity_overlap_length_m":0.0}},{"id":"f05ecb28fc1cdd744a1a2a27f0eeac9bcbaacf794b57d8b77317246b156bab8a:353966","type":"Feature","geometry":{"type":"MultiLineString","coordinates":[[[127.013257372,37.595973742],[127.013184395,37.595865779],[127.013126821,37.595830373],[127.013078381,37.595821362]]]},"properties":{"name":null,"rank":1,"ufid":"A00200000007VI1JG","link_id":"353966","zone_id":"f05ecb28fc1cdd744a1a2a27f0eeac9bcbaacf794b57d8b77317246b156bab8a","rule_code":"GEOMETRY_RULE_EXCLUDED","distance_m":13.92,"link_length_m":24.42,"candidate_grade":null,"intersection_ratio":0.0,"intersection_length_m":0.0,"proximity_overlap_ratio":0.0,"proximity_overlap_length_m":0.0}},{"id":"f060e90bdf4f8ad2b3805d6cdcc78e57594de0a6b4636fb068b83df208fe9fea:168971","type":"Feature","geometry":{"type":"MultiLineString","coordinates":[[[126.864750019,37.497840048],[126.86481953,37.497891581]]]},"properties":{"name":"인천-고성선","rank":1,"ufid":"A00200000007QXHOB","link_id":"168971","zone_id":"f060e90bdf4f8ad2b3805d6cdcc78e57594de0a6b4636fb068b83df208fe9fea","rule_code":"GEOMETRY_RULE_EXCLUDED","distance_m":16.76,"link_length_m":8.39,"candidate_grade":null,"intersection_ratio":0.0,"intersection_length_m":0.0,"proximity_overlap_ratio":0.0,"proximity_overlap_length_m":0.0}},{"id":"f060e90bdf4f8ad2b3805d6cdcc78e57594de0a6b4636fb068b83df208fe9fea:168970","type":"Feature","geometry":{"type":"MultiLineString","coordinates":[[[126.86481953,37.497891581],[126.864907854,37.497966282]]]},"properties":{"name":"인천-고성선","rank":2,"ufid":"A00200000007QXHNA","link_id":"168970","zone_id":"f060e90bdf4f8ad2b3805d6cdcc78e57594de0a6b4636fb068b83df208fe9fea","rule_code":"GEOMETRY_RULE_EXCLUDED","distance_m":16.86,"link_length_m":11.39,"candidate_grade":null,"intersection_ratio":0.0,"intersection_length_m":0.0,"proximity_overlap_ratio":0.0,"proximity_overlap_length_m":0.0}},{"id":"f060e90bdf4f8ad2b3805d6cdcc78e57594de0a6b4636fb068b83df208fe9fea:168964","type":"Feature","geometry":{"type":"MultiLineString","coordinates":[[[126.864611912,37.497740707],[126.864750019,37.497840048]]]},"properties":{"name":"인천-고성선","rank":3,"ufid":"A00200000007QXHH4","link_id":"168964","zone_id":"f060e90bdf4f8ad2b3805d6cdcc78e57594de0a6b4636fb068b83df208fe9fea","rule_code":"GEOMETRY_RULE_EXCLUDED","distance_m":16.99,"link_length_m":16.45,"candidate_grade":null,"intersection_ratio":0.0,"intersection_length_m":0.0,"proximity_overlap_ratio":0.0,"proximity_overlap_length_m":0.0}},{"id":"f060e90bdf4f8ad2b3805d6cdcc78e57594de0a6b4636fb068b83df208fe9fea:169019","type":"Feature","geometry":{"type":"MultiLineString","coordinates":[[[126.864107897,37.497318153],[126.864611912,37.497740707]]]},"properties":{"name":"인천-고성선","rank":4,"ufid":"A00200000007QXJ4T","link_id":"169019","zone_id":"f060e90bdf4f8ad2b3805d6cdcc78e57594de0a6b4636fb068b83df208fe9fea","rule_code":"GEOMETRY_RULE_EXCLUDED","distance_m":17.89,"link_length_m":64.67,"candidate_grade":null,"intersection_ratio":0.0,"intersection_length_m":0.0,"proximity_overlap_ratio":0.0,"proximity_overlap_length_m":0.0}},{"id":"f8a3bd5789fa130c73f6ab446546252e51f64b00c5e1f269e9bcb6381a06721e:197937","type":"Feature","geometry":{"type":"MultiLineString","coordinates":[[[126.908521167,37.495503508],[126.908634912,37.495188937],[126.908721153,37.494917183]]]},"properties":{"name":null,"rank":1,"ufid":"A00200000007RMPK5","link_id":"197937","zone_id":"f8a3bd5789fa130c73f6ab446546252e51f64b00c5e1f269e9bcb6381a06721e","rule_code":"GEOMETRY_RULE_EXCLUDED","distance_m":11.74,"link_length_m":67.42,"candidate_grade":null,"intersection_ratio":0.0,"intersection_length_m":0.0,"proximity_overlap_ratio":0.0,"proximity_overlap_length_m":0.0}},{"id":"f8a3bd5789fa130c73f6ab446546252e51f64b00c5e1f269e9bcb6381a06721e:198936","type":"Feature","geometry":{"type":"MultiLineString","coordinates":[[[126.908721153,37.494917183],[126.908734787,37.494839111]]]},"properties":{"name":null,"rank":2,"ufid":"A00200000007RNS7W","link_id":"198936","zone_id":"f8a3bd5789fa130c73f6ab446546252e51f64b00c5e1f269e9bcb6381a06721e","rule_code":"GEOMETRY_RULE_EXCLUDED","distance_m":13.37,"link_length_m":8.75,"candidate_grade":null,"intersection_ratio":0.0,"intersection_length_m":0.0,"proximity_overlap_ratio":0.0,"proximity_overlap_length_m":0.0}},{"id":"f8a3bd5789fa130c73f6ab446546252e51f64b00c5e1f269e9bcb6381a06721e:198935","type":"Feature","geometry":{"type":"MultiLineString","coordinates":[[[126.908734787,37.494839111],[126.908744903,37.494781185]]]},"properties":{"name":null,"rank":3,"ufid":"A00200000007RNS6V","link_id":"198935","zone_id":"f8a3bd5789fa130c73f6ab446546252e51f64b00c5e1f269e9bcb6381a06721e","rule_code":"GEOMETRY_RULE_EXCLUDED","distance_m":14.96,"link_length_m":6.49,"candidate_grade":null,"intersection_ratio":0.0,"intersection_length_m":0.0,"proximity_overlap_ratio":0.0,"proximity_overlap_length_m":0.0}},{"id":"f8a3bd5789fa130c73f6ab446546252e51f64b00c5e1f269e9bcb6381a06721e:197936","type":"Feature","geometry":{"type":"MultiLineString","coordinates":[[[126.908744903,37.494781185],[126.908854487,37.494432881]]]},"properties":{"name":null,"rank":4,"ufid":"A00200000007RMPJ4","link_id":"197936","zone_id":"f8a3bd5789fa130c73f6ab446546252e51f64b00c5e1f269e9bcb6381a06721e","rule_code":"GEOMETRY_RULE_EXCLUDED","distance_m":18.79,"link_length_m":39.84,"candidate_grade":null,"intersection_ratio":0.0,"intersection_length_m":0.0,"proximity_overlap_ratio":0.0,"proximity_overlap_length_m":0.0}},{"id":"f9e979369f213b4bf03b7daeac13bbd1d5b00b356b8e119f77398699b89776d0:228429","type":"Feature","geometry":{"type":"MultiLineString","coordinates":[[[127.117614942,37.505698292],[127.117236026,37.505898782]]]},"properties":{"name":null,"rank":1,"ufid":"A00200000007SD2G6","link_id":"228429","zone_id":"f9e979369f213b4bf03b7daeac13bbd1d5b00b356b8e119f77398699b89776d0","rule_code":"GEOMETRY_RULE_EXCLUDED","distance_m":10.23,"link_length_m":40.2,"candidate_grade":null,"intersection_ratio":0.0,"intersection_length_m":0.0,"proximity_overlap_ratio":0.0,"proximity_overlap_length_m":0.0}},{"id":"fe1203135a2cca78541d561420d255b1a616e09fc97bbac4382fe26035229c8a:379186","type":"Feature","geometry":{"type":"MultiLineString","coordinates":[[[127.06839642,37.582979616],[127.068400105,37.582937558]]]},"properties":{"name":null,"rank":1,"ufid":"A00200000007W8RN1","link_id":"379186","zone_id":"fe1203135a2cca78541d561420d255b1a616e09fc97bbac4382fe26035229c8a","rule_code":"GEOMETRY_RULE_EXCLUDED","distance_m":14.45,"link_length_m":4.68,"candidate_grade":null,"intersection_ratio":0.0,"intersection_length_m":0.0,"proximity_overlap_ratio":0.0,"proximity_overlap_length_m":0.0}},{"id":"fe1203135a2cca78541d561420d255b1a616e09fc97bbac4382fe26035229c8a:378968","type":"Feature","geometry":{"type":"MultiLineString","coordinates":[[[127.068400105,37.582937558],[127.068403218,37.582902021]]]},"properties":{"name":null,"rank":2,"ufid":"A00200000007W8LDL","link_id":"378968","zone_id":"fe1203135a2cca78541d561420d255b1a616e09fc97bbac4382fe26035229c8a","rule_code":"GEOMETRY_RULE_EXCLUDED","distance_m":14.52,"link_length_m":3.95,"candidate_grade":null,"intersection_ratio":0.0,"intersection_length_m":0.0,"proximity_overlap_ratio":0.0,"proximity_overlap_length_m":0.0}},{"id":"fe1203135a2cca78541d561420d255b1a616e09fc97bbac4382fe26035229c8a:332409","type":"Feature","geometry":{"type":"MultiLineString","coordinates":[[[127.068182165,37.58385362],[127.068318204,37.583429714],[127.068384922,37.583110851],[127.06839642,37.582979616]]]},"properties":{"name":null,"rank":3,"ufid":"A00200000007UXKSM","link_id":"332409","zone_id":"fe1203135a2cca78541d561420d255b1a616e09fc97bbac4382fe26035229c8a","rule_code":"GEOMETRY_RULE_EXCLUDED","distance_m":14.69,"link_length_m":99.0,"candidate_grade":null,"intersection_ratio":0.0,"intersection_length_m":0.0,"proximity_overlap_ratio":0.0,"proximity_overlap_length_m":0.0}},{"id":"fe1203135a2cca78541d561420d255b1a616e09fc97bbac4382fe26035229c8a:378969","type":"Feature","geometry":{"type":"MultiLineString","coordinates":[[[127.068403218,37.582902021],[127.068385881,37.58235124]]]},"properties":{"name":null,"rank":4,"ufid":"A00200000007W8LEM","link_id":"378969","zone_id":"fe1203135a2cca78541d561420d255b1a616e09fc97bbac4382fe26035229c8a","rule_code":"GEOMETRY_RULE_EXCLUDED","distance_m":14.71,"link_length_m":61.13,"candidate_grade":null,"intersection_ratio":0.0,"intersection_length_m":0.0,"proximity_overlap_ratio":0.0,"proximity_overlap_length_m":0.0}}]}